{"version": 0.6, "generator": "Overpass API 0.7.62.5 1bd436f1", "osm3s": {"timestamp_osm_base": "2025-04-07T04:08:44Z", "copyright": "The data included in this document is from www.openstreetmap.org. The data is made available under ODbL."}, "elements": [{"type": "node", "id": 490449666, "lat": 42.705418, "lon": -74.3137601, "tags": {"highway": "bus_stop", "name": "Schoharie County Public Transportation"}}, {"type": "node", "id": 1266105760, "lat": 42.8117705, "lon": -73.9404416, "tags": {"bench": "yes", "bus": "yes", "highway": "bus_stop", "public_transport": "platform", "shelter": "yes"}}, {"type": "node", "id": 1266105798, "lat": 42.8119903, "lon": -73.9403713, "tags": {"bench": "yes", "highway": "bus_stop", "shelter": "yes"}}, {"type": "node", "id": 1405098271, "lat": 42.8135723, "lon": -73.9431578, "tags": {"bench": "yes", "bus": "yes", "highway": "bus_stop", "name": "Downtown/Train Station (BusPlus)", "operator": "Capital District Transportation Authority", "public_transport": "platform", "shelter": "yes"}}, {"type": "node", "id": 1405098273, "lat": 42.8137012, "lon": -73.9430144, "tags": {"bench": "yes", "bin": "yes", "bus": "yes", "highway": "bus_stop", "lit": "yes", "name": "Downtown/Train Station (BusPlus)", "operator": "Capital District Transportation Authority", "public_transport": "platform", "ref": "03744", "shelter": "yes", "tactile_paving": "no"}}, {"type": "node", "id": 1428453075, "lat": 42.8050493, "lon": -73.9320697, "tags": {"bench": "yes", "highway": "bus_stop", "name": "Steuben (BusPlus)", "operator": "Capital District Transportation Authority", "shelter": "yes"}}, {"type": "node", "id": 1428453076, "lat": 42.8053583, "lon": -73.9320681, "tags": {"bench": "yes", "highway": "bus_stop", "name": "Steuben (BusPlus)", "operator": "Capital District Transportation Authority", "shelter": "yes"}}, {"type": "node", "id": 1428453077, "lat": 42.8075208, "lon": -73.9348451, "tags": {"bench": "yes", "bus": "yes", "highway": "bus_stop", "public_transport": "platform", "shelter": "yes"}}, {"type": "node", "id": 1437965694, "lat": 42.819543, "lon": -73.9175196, "tags": {"bench": "yes", "highway": "bus_stop", "shelter": "yes"}}, {"type": "node", "id": 1494992862, "lat": 42.8104814, "lon": -73.9381499, "tags": {"bench": "yes", "bus": "yes", "highway": "bus_stop", "name": "Veeder/Nott Terrace (BusPlus)", "operator": "Capital District Transportation Authority", "public_transport": "platform", "shelter": "no"}}, {"type": "node", "id": 1494992863, "lat": 42.8105053, "lon": -73.9385362, "tags": {"bench": "yes", "highway": "bus_stop", "name": "Veeder/Nott Terrace (BusPlus)", "operator": "Capital District Transportation Authority", "shelter": "yes"}}, {"type": "node", "id": 1531474427, "lat": 42.8039021, "lon": -73.9514796, "tags": {"bench": "yes", "highway": "bus_stop", "shelter": "yes"}}, {"type": "node", "id": 1538952785, "lat": 42.7995409, "lon": -73.9604253, "tags": {"bench": "yes", "bus": "yes", "highway": "bus_stop", "public_transport": "platform", "shelter": "yes"}}, {"type": "node", "id": 2988195892, "lat": 42.8151464, "lon": -73.9482489, "tags": {"alt_name": "Gateway Plaza Mobility Center", "bus": "yes", "highway": "bus_stop", "name": "State St & Washington Ave - Gateway Plaza", "operator": "Capital District Transportation Authority", "public_transport": "platform", "shelter": "yes"}}, {"type": "node", "id": 7717943585, "lat": 42.8108584, "lon": -73.9397555, "tags": {"highway": "bus_stop", "name": "604 State St"}}, {"type": "node", "id": 11296133519, "lat": 42.8235088, "lon": -73.9094048, "tags": {"bus": "yes", "highway": "bus_stop", "public_transport": "platform", "shelter": "yes"}}]}