{"version": 0.6, "generator": "Overpass API 0.7.62.5 1bd436f1", "osm3s": {"timestamp_osm_base": "2025-04-07T03:24:45Z", "copyright": "The data included in this document is from www.openstreetmap.org. The data is made available under ODbL."}, "elements": [{"type": "node", "id": 2934364518, "lat": 42.075289, "lon": -75.9058622, "tags": {"bus": "yes", "highway": "bus_stop", "name": "Ross Park Zoo", "network": "Broome County Transit", "network:short": "BC Transit", "network:wikidata": "Q4975274", "operator": "Broome County Department of Public Transportation", "public_transport": "platform"}}, {"type": "node", "id": 2934364519, "lat": 42.08663, "lon": -75.915294, "tags": {"bus": "yes", "highway": "bus_stop", "name": "UHS Binghamton General Hospital", "network": "Broome County Transit", "network:short": "BC Transit", "network:wikidata": "Q4975274", "operator": "Broome County Department of Public Transportation", "public_transport": "platform", "shelter": "yes"}}, {"type": "node", "id": 2934374194, "lat": 42.0857545, "lon": -75.9124904, "tags": {"bus": "yes", "highway": "bus_stop", "name": "James & So. Wash", "network": "Broome County Transit", "network:short": "BC Transit", "network:wikidata": "Q4975274", "operator": "Broome County Department of Public Transportation", "public_transport": "platform"}}, {"type": "node", "id": 2934639481, "lat": 42.0918285, "lon": -75.9518546, "tags": {"bench": "yes", "bus": "yes", "highway": "bus_stop", "name": "University Plaza", "network": "Broome County Transit", "network:short": "BC Transit", "network:wikidata": "Q4975274", "operator": "Broome County Department of Public Transportation", "public_transport": "platform", "shelter": "no"}}, {"type": "node", "id": 2934639487, "lat": 42.0870401, "lon": -75.9670718, "tags": {"bench": "yes", "bus": "yes", "highway": "bus_stop", "name": "BU Union", "network": "Broome County Transit", "network:short": "BC Transit", "network:wikidata": "Q4975274", "operator": "Broome County Department of Public Transportation", "public_transport": "platform", "shelter": "no"}}, {"type": "node", "id": 2934639492, "lat": 42.0869159, "lon": -75.9659381, "tags": {"bench": "yes", "bus": "yes", "highway": "bus_stop", "name": "Mohawk Hall", "operator": "B.C. Transit, OCCT", "public_transport": "platform", "shelter": "yes"}}, {"type": "node", "id": 2935459177, "lat": 42.1287966, "lon": -75.9733972, "tags": {"bus": "yes", "highway": "bus_stop", "name": "Oakdale Mall", "network": "Broome County Transit", "network:short": "BC Transit", "network:wikidata": "Q4975274", "operator": "Broome County Department of Public Transportation", "public_transport": "platform", "shelter": "yes"}}, {"type": "node", "id": 2935459178, "lat": 42.1160423, "lon": -75.9410198, "tags": {"bus": "yes", "highway": "bus_stop", "name": "Prospect & Glenwood", "network": "Broome County Transit", "network:short": "BC Transit", "network:wikidata": "Q4975274", "operator": "Broome County Department of Public Transportation", "public_transport": "platform"}}, {"type": "node", "id": 2935578721, "lat": 42.1360349, "lon": -75.9108355, "tags": {"bus": "yes", "highway": "bus_stop", "name": "SUNY Broome", "network": "Broome County Transit", "network:short": "BC Transit", "network:wikidata": "Q4975274", "operator": "Broome County Department of Public Transportation", "public_transport": "platform", "shelter": "yes"}}, {"type": "node", "id": 2935578722, "lat": 42.1678557, "lon": -75.8744591, "tags": {"bus": "yes", "highway": "bus_stop", "name": "Park & Ride", "network": "Broome County Transit", "network:short": "BC Transit", "network:wikidata": "Q4975274", "operator": "Broome County Department of Public Transportation", "public_transport": "platform"}}, {"type": "node", "id": 2935670068, "lat": 42.0951758, "lon": -75.8933724, "tags": {"bench": "no", "bus": "yes", "highway": "bus_stop", "name": "Conklin / Tompkins", "network": "Broome County Transit", "network:short": "BC Transit", "network:wikidata": "Q4975274", "operator": "Broome County Department of Public Transportation", "public_transport": "platform", "shelter": "no"}}, {"type": "node", "id": 2935670069, "lat": 42.0979815, "lon": -75.8761789, "tags": {"bus": "yes", "highway": "bus_stop", "name": "Saratoga Terrace", "network": "Broome County Transit", "network:short": "BC Transit", "network:wikidata": "Q4975274", "operator": "Broome County Department of Public Transportation", "public_transport": "platform", "shelter": "yes"}}, {"type": "node", "id": 2935832345, "lat": 42.1085982, "lon": -75.952375, "tags": {"bus": "yes", "highway": "bus_stop", "name": "Floral & Burbank", "network": "Broome County Transit", "network:short": "BC Transit", "network:wikidata": "Q4975274", "operator": "Broome County Department of Public Transportation", "public_transport": "platform"}}, {"type": "node", "id": 2935883304, "lat": 42.1252335, "lon": -75.9229631, "tags": {"bus": "yes", "highway": "bus_stop", "name": "Legacy Bay", "network": "Broome County Transit", "network:short": "BC Transit", "network:wikidata": "Q4975274", "operator": "Broome County Department of Public Transportation", "public_transport": "platform"}}, {"type": "node", "id": 3000851344, "lat": 42.0882594, "lon": -75.9079609, "tags": {"bench": "no", "bin": "no", "bus": "yes", "highway": "bus_stop", "network": "Broome County Transit", "network:short": "BC Transit", "network:wikidata": "Q4975274", "operator": "Broome County Department of Public Transportation", "public_transport": "platform", "shelter": "no"}}, {"type": "node", "id": 4960804016, "lat": 42.0840397, "lon": -75.9703247, "tags": {"bench": "yes", "bus": "yes", "highway": "bus_stop", "name": "Mountainview", "operator": "OCCT", "public_transport": "platform", "shelter": "yes"}}, {"type": "node", "id": 5357326170, "lat": 42.0887266, "lon": -75.9731883, "tags": {"bench": "yes", "bus": "yes", "highway": "bus_stop", "name": "Academic A / BU School of Management", "operator": "OCCT / B.C. Transit", "public_transport": "platform", "shelter": "yes"}}, {"type": "node", "id": 5357326171, "lat": 42.0883942, "lon": -75.962828, "tags": {"bench": "yes", "bus": "yes", "highway": "bus_stop", "name": "Newing", "operator": "OCCT", "public_transport": "platform", "shelter": "yes"}}, {"type": "node", "id": 5357326172, "lat": 42.0909313, "lon": -75.9672679, "tags": {"bench": "yes", "bus": "yes", "highway": "bus_stop", "name": "East Gym", "operator": "OCCT", "public_transport": "platform", "shelter": "yes"}}, {"type": "node", "id": 5357326173, "lat": 42.0897009, "lon": -75.9657496, "tags": {"bench": "no", "bus": "yes", "highway": "bus_stop", "name": "Couper Admin Bldg", "operator": "OCCT", "public_transport": "platform", "shelter": "no"}}, {"type": "node", "id": 5357326174, "lat": 42.0917267, "lon": -75.9709546, "tags": {"bench": "no", "bus": "yes", "highway": "bus_stop", "name": "West Gym", "operator": "OCCT", "public_transport": "platform", "shelter": "no"}}, {"type": "node", "id": 5357326175, "lat": 42.0915817, "lon": -75.9739441, "tags": {"bench": "no", "bus": "yes", "highway": "bus_stop", "name": "McGuire Building", "operator": "OCCT", "public_transport": "platform", "shelter": "no"}}, {"type": "node", "id": 5357326176, "lat": 42.090995, "lon": -75.9733282, "tags": {"bench": "yes", "bus": "yes", "highway": "bus_stop", "name": "Physical Facilities OB / BU Tennis Counts", "operator": "OCCT / B.C. Transit", "public_transport": "platform", "shelter": "yes"}}, {"type": "node", "id": 5357326177, "lat": 42.091808, "lon": -75.9745055, "tags": {"bench": "no", "bus": "yes", "highway": "bus_stop", "name": "Physical Facilities IB / BU Power Plant", "operator": "OCCT / B.C. Transit", "public_transport": "platform", "shelter": "no"}}, {"type": "node", "id": 5357326178, "lat": 42.0890762, "lon": -75.974444, "tags": {"bench": "no", "bus": "yes", "highway": "bus_stop", "name": "Clearview", "operator": "OCCT", "public_transport": "platform", "shelter": "no"}}, {"type": "node", "id": 5357326179, "lat": 42.0862408, "lon": -75.9744503, "tags": {"bench": "yes", "bus": "yes", "highway": "bus_stop", "name": "Susquehanna Lot M", "operator": "OCCT", "public_transport": "platform", "shelter": "yes"}}, {"type": "node", "id": 5357326180, "lat": 42.0871458, "lon": -75.9782362, "tags": {"bench": "yes", "bus": "yes", "highway": "bus_stop", "name": "Hillside", "operator": "OCCT", "public_transport": "platform", "shelter": "yes", "wheelchair": "yes"}}, {"type": "node", "id": 5357326181, "lat": 42.0883537, "lon": -75.9731461, "tags": {"bus": "yes", "highway": "bus_stop", "name": "Hinman", "operator": "OCCT", "public_transport": "platform"}}, {"type": "node", "id": 5357326182, "lat": 42.0851033, "lon": -75.9649278, "tags": {"bench": "no", "bus": "yes", "highway": "bus_stop", "name": "Decker Lot O", "public_transport": "platform", "shelter": "no"}}, {"type": "node", "id": 5367606975, "lat": 42.0934164, "lon": -75.9588043, "tags": {"bench": "no", "bin": "no", "bus": "yes", "check_date:shelter": "2023-12-23", "highway": "bus_stop", "name": "ITC", "public_transport": "platform", "shelter": "yes", "tactile_paving": "no"}}, {"type": "node", "id": 5631144961, "lat": 42.0950336, "lon": -75.9754914, "tags": {"bench": "no", "bus": "yes", "highway": "bus_stop", "name": "Bunn Hill/NY 434 Southside", "network": "Broome County Transit", "network:short": "BC Transit", "network:wikidata": "Q4975274", "operator": "Broome County Department of Public Transportation", "public_transport": "platform", "shelter": "no"}}, {"type": "node", "id": 5631144962, "lat": 42.094728, "lon": -75.9752911, "tags": {"bench": "no", "bus": "yes", "highway": "bus_stop", "name": "Bunn Hill/NY 434 Northside", "network": "Broome County Transit", "network:short": "BC Transit", "network:wikidata": "Q4975274", "operator": "Broome County Department of Public Transportation", "public_transport": "platform", "shelter": "no"}}, {"type": "node", "id": 6239069021, "lat": 42.1202623, "lon": -75.9002814, "tags": {"bus": "yes", "highway": "bus_stop", "name": "Chenango & Linden", "network": "Broome County Transit", "network:short": "BC Transit", "network:wikidata": "Q4975274", "operator": "Broome County Department of Public Transportation", "public_transport": "platform", "surface": "grass"}}, {"type": "node", "id": 6240792409, "lat": 42.1194653, "lon": -75.9009807, "tags": {"bus": "yes", "highway": "bus_stop", "name": "Chenango & Dennison", "network": "Broome County Transit", "network:short": "BC Transit", "network:wikidata": "Q4975274", "operator": "Broome County Department of Public Transportation", "public_transport": "platform", "surface": "grass"}}, {"type": "node", "id": 6240792410, "lat": 42.1142469, "lon": -75.9024199, "tags": {"bus": "yes", "highway": "bus_stop", "name": "Chenango & Truesdell", "network": "Broome County Transit", "network:short": "BC Transit", "network:wikidata": "Q4975274", "operator": "Broome County Department of Public Transportation", "public_transport": "platform", "surface": "grass"}}, {"type": "node", "id": 6240792411, "lat": 42.1126099, "lon": -75.9026632, "tags": {"bus": "yes", "highway": "bus_stop", "name": "Chenango & Pleasant", "network": "Broome County Transit", "network:short": "BC Transit", "network:wikidata": "Q4975274", "operator": "Broome County Department of Public Transportation", "public_transport": "platform", "surface": "grass"}}, {"type": "node", "id": 6240792468, "lat": 42.1103096, "lon": -75.9061749, "tags": {"bus": "yes", "highway": "bus_stop", "name": "Kmart Plaza", "network": "Broome County Transit", "network:short": "BC Transit", "network:wikidata": "Q4975274", "note": "Bus # 40", "operator": "Broome County Department of Public Transportation", "public_transport": "platform", "surface": "paved"}}, {"type": "node", "id": 6241108069, "lat": 42.1056721, "lon": -75.9091053, "tags": {"bench": "no", "bus": "yes", "highway": "bus_stop", "name": "State & Makerspace", "network": "Broome County Transit", "network:short": "BC Transit", "network:wikidata": "Q4975274", "operator": "Broome County Department of Public Transportation", "passenger_information_display": "no", "public_transport": "platform", "shelter": "no"}}, {"type": "node", "id": 6241108070, "lat": 42.1078856, "lon": -75.9073731, "tags": {"bench": "no", "bus": "yes", "highway": "bus_stop", "name": "State & Lupo's", "network": "Broome County Transit", "network:short": "BC Transit", "network:wikidata": "Q4975274", "operator": "Broome County Department of Public Transportation", "passenger_information_display": "no", "public_transport": "platform", "shelter": "no", "surface": "grass"}}, {"type": "node", "id": 6241108071, "lat": 42.1095431, "lon": -75.9047969, "tags": {"bench": "no", "bus": "yes", "highway": "bus_stop", "name": "State & CVS", "network": "Broome County Transit", "network:short": "BC Transit", "network:wikidata": "Q4975274", "operator": "Broome County Department of Public Transportation", "passenger_information_display": "no", "public_transport": "platform", "shelter": "no", "surface": "grass"}}, {"type": "node", "id": 6241108072, "lat": 42.1141355, "lon": -75.902293, "tags": {"bus": "yes", "highway": "bus_stop", "name": "Chenango & Moffatt", "network": "Broome County Transit", "network:short": "BC Transit", "network:wikidata": "Q4975274", "operator": "Broome County Department of Public Transportation", "public_transport": "platform", "surface": "concrete"}}, {"type": "node", "id": 6241108073, "lat": 42.1154666, "lon": -75.9020852, "tags": {"bus": "yes", "highway": "bus_stop", "name": "Chenango & Sturges", "network": "Broome County Transit", "network:short": "BC Transit", "network:wikidata": "Q4975274", "operator": "Broome County Department of Public Transportation", "public_transport": "platform"}}, {"type": "node", "id": 6241108075, "lat": 42.1178213, "lon": -75.9016292, "tags": {"bus": "yes", "highway": "bus_stop", "name": "Chenango & Mercereau", "network": "Broome County Transit", "network:short": "BC Transit", "network:wikidata": "Q4975274", "operator": "Broome County Department of Public Transportation", "public_transport": "platform"}}, {"type": "node", "id": 6243141235, "lat": 42.1132162, "lon": -75.9024302, "tags": {"bench": "no", "bus": "yes", "highway": "bus_stop", "name": "Chenango & Morgan", "network": "Broome County Transit", "network:short": "BC Transit", "network:wikidata": "Q4975274", "operator": "Broome County Department of Public Transportation", "passenger_information_display": "no", "public_transport": "platform", "shelter": "no", "surface": "grass"}}, {"type": "node", "id": 6243141236, "lat": 42.1116492, "lon": -75.9026528, "tags": {"bench": "no", "bus": "yes", "highway": "bus_stop", "name": "Chenango & Irving", "network": "Broome County Transit", "network:short": "BC Transit", "network:wikidata": "Q4975274", "operator": "Broome County Department of Public Transportation", "passenger_information_display": "no", "public_transport": "platform", "shelter": "no", "surface": "grass"}}, {"type": "node", "id": 6243141293, "lat": 42.1095415, "lon": -75.903871, "tags": {"bus": "yes", "highway": "bus_stop", "name": "Chenango & CVS", "network": "Broome County Transit", "network:short": "BC Transit", "network:wikidata": "Q4975274", "operator": "Broome County Department of Public Transportation", "passenger_information_display": "no", "public_transport": "platform", "shelter": "yes", "surface": "concrete"}}, {"type": "node", "id": 6243141294, "lat": 42.1096081, "lon": -75.9036819, "tags": {"bench": "no", "bus": "yes", "highway": "bus_stop", "name": "Chenango & CVS", "network": "Broome County Transit", "network:short": "BC Transit", "network:wikidata": "Q4975274", "operator": "Broome County Department of Public Transportation", "passenger_information_display": "no", "public_transport": "platform", "shelter": "no", "surface": "grass"}}, {"type": "node", "id": 6243141296, "lat": 42.1074568, "lon": -75.9043169, "tags": {"bench": "no", "bus": "yes", "highway": "bus_stop", "name": "Chenango & Robinson", "network": "Broome County Transit", "network:short": "BC Transit", "network:wikidata": "Q4975274", "operator": "Broome County Department of Public Transportation", "passenger_information_display": "no", "public_transport": "platform", "shelter": "no", "surface": "asphalt"}}, {"type": "node", "id": 6243141306, "lat": 42.10505, "lon": -75.9069776, "tags": {"bench": "no", "bus": "yes", "highway": "bus_stop", "name": "Chenango & Eldredge", "network": "Broome County Transit", "network:short": "BC Transit", "network:wikidata": "Q4975274", "operator": "Broome County Department of Public Transportation", "passenger_information_display": "no", "public_transport": "platform", "shelter": "no", "surface": "concrete"}}, {"type": "node", "id": 6252572665, "lat": 42.1173734, "lon": -75.9018597, "tags": {"bench": "no", "bus": "yes", "highway": "bus_stop", "name": "Chenango & Lockwood", "network": "Broome County Transit", "network:short": "BC Transit", "network:wikidata": "Q4975274", "note": "No sign", "operator": "Broome County Department of Public Transportation", "passenger_information_display": "no", "public_transport": "platform", "shelter": "no", "surface": "paved"}}, {"type": "node", "id": 6252993575, "lat": 42.1227918, "lon": -75.8989452, "tags": {"bus": "yes", "highway": "bus_stop", "name": "Chenango & Blanchard", "network": "Broome County Transit", "network:short": "BC Transit", "network:wikidata": "Q4975274", "operator": "Broome County Department of Public Transportation", "public_transport": "platform", "surface": "concrete"}}, {"type": "node", "id": 6275425617, "lat": 42.1011857, "lon": -75.9108174, "tags": {"bench": "yes", "bus": "yes", "highway": "bus_stop", "network": "Broome County Transit", "network:short": "BC Transit", "network:wikidata": "Q4975274", "operator": "Broome County Department of Public Transportation", "public_transport": "platform", "route_ref": "7", "shelter": "yes"}}, {"type": "node", "id": 6275425618, "lat": 42.1019241, "lon": -75.9106082, "tags": {"bench": "yes", "bus": "yes", "highway": "bus_stop", "network": "Broome County Transit", "network:short": "BC Transit", "network:wikidata": "Q4975274", "operator": "Broome County Department of Public Transportation", "public_transport": "platform", "route_ref": "51;53", "shelter": "yes"}}, {"type": "node", "id": 6275425619, "lat": 42.1013987, "lon": -75.910753, "tags": {"bench": "yes", "bus": "yes", "highway": "bus_stop", "network": "Broome County Transit", "network:short": "BC Transit", "network:wikidata": "Q4975274", "operator": "Broome County Department of Public Transportation", "public_transport": "platform", "route_ref": "15", "shelter": "yes"}}, {"type": "node", "id": 6275425620, "lat": 42.1017489, "lon": -75.9106565, "tags": {"bench": "yes", "bus": "yes", "highway": "bus_stop", "network": "Broome County Transit", "network:short": "BC Transit", "network:wikidata": "Q4975274", "operator": "Broome County Department of Public Transportation", "public_transport": "platform", "route_ref": "8x", "shelter": "yes"}}, {"type": "node", "id": 6275425621, "lat": 42.1015738, "lon": -75.9107047, "tags": {"bench": "yes", "bus": "yes", "highway": "bus_stop", "network": "Broome County Transit", "network:short": "BC Transit", "network:wikidata": "Q4975274", "operator": "Broome County Department of Public Transportation", "public_transport": "platform", "route_ref": "8", "shelter": "yes"}}, {"type": "node", "id": 6275425622, "lat": 42.1010922, "lon": -75.9109005, "tags": {"bench": "yes", "bus": "yes", "highway": "bus_stop", "network": "Broome County Transit", "network:short": "BC Transit", "network:wikidata": "Q4975274", "operator": "Broome County Department of Public Transportation", "public_transport": "platform", "route_ref": "28", "shelter": "yes"}}, {"type": "node", "id": 6275425623, "lat": 42.1012673, "lon": -75.9108523, "tags": {"bench": "yes", "bus": "yes", "highway": "bus_stop", "network": "Broome County Transit", "network:short": "BC Transit", "network:wikidata": "Q4975274", "operator": "Broome County Department of Public Transportation", "public_transport": "platform", "route_ref": "12", "shelter": "yes"}}, {"type": "node", "id": 6275425624, "lat": 42.1014723, "lon": -75.9107959, "tags": {"bench": "yes", "bus": "yes", "highway": "bus_stop", "network": "Broome County Transit", "network:short": "BC Transit", "network:wikidata": "Q4975274", "operator": "Broome County Department of Public Transportation", "public_transport": "platform", "route_ref": "5", "shelter": "yes"}}, {"type": "node", "id": 6275425625, "lat": 42.1016474, "lon": -75.9107476, "tags": {"bench": "yes", "bus": "yes", "highway": "bus_stop", "network": "Broome County Transit", "network:short": "BC Transit", "network:wikidata": "Q4975274", "operator": "Broome County Department of Public Transportation", "public_transport": "platform", "route_ref": "40", "shelter": "yes"}}, {"type": "node", "id": 6275425626, "lat": 42.1018226, "lon": -75.9106994, "tags": {"bench": "yes", "bus": "yes", "highway": "bus_stop", "network": "Broome County Transit", "network:short": "BC Transit", "network:wikidata": "Q4975274", "operator": "Broome County Department of Public Transportation", "public_transport": "platform", "route_ref": "3", "shelter": "yes"}}, {"type": "node", "id": 6275425627, "lat": 42.1019977, "lon": -75.9106511, "tags": {"bench": "yes", "bus": "yes", "highway": "bus_stop", "network": "Broome County Transit", "network:short": "BC Transit", "network:wikidata": "Q4975274", "operator": "Broome County Department of Public Transportation", "public_transport": "platform", "route_ref": "57", "shelter": "yes"}}, {"type": "node", "id": 6275426230, "lat": 42.1010106, "lon": -75.9108657, "tags": {"bench": "yes", "bus": "yes", "highway": "bus_stop", "network": "Broome County Transit", "network:short": "BC Transit", "network:wikidata": "Q4975274", "operator": "Broome County Department of Public Transportation", "public_transport": "platform", "route_ref": "35", "shelter": "yes"}}, {"type": "node", "id": 7246220538, "lat": 42.101753, "lon": -75.9106543, "tags": {"bench": "no", "brand": "FlixBus", "brand:wikidata": "Q15712258", "bus": "yes", "highway": "bus_stop", "name": "FlixBus Binghamton", "public_transport": "platform", "shelter": "yes"}}, {"type": "node", "id": 7504162694, "lat": 42.107549, "lon": -75.959997, "tags": {"bus": "yes", "highway": "bus_stop", "network": "Broome County Transit", "network:short": "BC Transit", "network:wikidata": "Q4975274", "operator": "Broome County Department of Public Transportation", "public_transport": "platform"}}, {"type": "node", "id": 7504162889, "lat": 42.1074403, "lon": -75.9602495, "tags": {"bus": "yes", "highway": "bus_stop", "network": "Broome County Transit", "network:short": "BC Transit", "network:wikidata": "Q4975274", "operator": "Broome County Department of Public Transportation", "public_transport": "platform"}}, {"type": "node", "id": 7966602818, "lat": 42.1010375, "lon": -75.916902, "tags": {"bench": "no", "bus": "yes", "highway": "bus_stop", "name": "Front Street & North Street", "network": "Broome County Transit", "network:short": "BC Transit", "network:wikidata": "Q4975274", "operator": "Broome County Department of Public Transportation", "public_transport": "platform", "shelter": "no"}}, {"type": "node", "id": 7966602827, "lat": 42.0988055, "lon": -75.9153678, "tags": {"bus": "yes", "highway": "bus_stop", "name": "Court Street / Water Street", "network": "Broome County Transit", "network:short": "BC Transit", "network:wikidata": "Q4975274", "operator": "Broome County Department of Public Transportation", "public_transport": "platform"}}, {"type": "node", "id": 7966602828, "lat": 42.0986324, "lon": -75.9135613, "tags": {"bus": "yes", "highway": "bus_stop", "name": "Court Street & Washington Street", "network": "Broome County Transit", "network:short": "BC Transit", "network:wikidata": "Q4975274", "operator": "Broome County Department of Public Transportation", "public_transport": "platform"}}, {"type": "node", "id": 11937074870, "lat": 42.4430961, "lon": -75.5978929, "tags": {"bus": "yes", "highway": "bus_stop", "public_transport": "platform"}}, {"type": "node", "id": 12098038198, "lat": 42.098366, "lon": -75.9830662, "tags": {"bus": "yes", "highway": "bus_stop", "name": "47", "network": "Broome County Transit", "network:short": "BC Transit", "network:wikidata": "Q4975274", "operator": "Broome County Department of Public Transportation", "public_transport": "platform"}}, {"type": "node", "id": 12433909281, "lat": 42.0870078, "lon": -76.0490166, "tags": {"bus": "yes", "highway": "bus_stop", "name": "Clayton Ave", "network": "Broome County Transit", "network:short": "BC Transit", "network:wikidata": "Q4975274", "operator": "Broome County Department of Public Transportation", "public_transport": "platform", "shelter": "no"}}, {"type": "node", "id": 12433909282, "lat": 42.0958804, "lon": -75.9999569, "tags": {"bench": "yes", "bus": "yes", "highway": "bus_stop", "network": "Broome County Transit", "network:short": "BC Transit", "network:wikidata": "Q4975274", "operator": "Broome County Department of Public Transportation", "public_transport": "platform", "shelter": "yes"}}, {"type": "node", "id": 12433909283, "lat": 42.0961222, "lon": -76.0002828, "tags": {"bench": "yes", "bin": "no", "bus": "yes", "highway": "bus_stop", "name": "Vestal Pkwy / Arby's", "network": "Broome County Transit", "network:short": "BC Transit", "network:wikidata": "Q4975274", "operator": "Broome County Department of Public Transportation", "public_transport": "platform", "shelter": "yes"}}, {"type": "node", "id": 12433909284, "lat": 42.0977352, "lon": -75.9959391, "tags": {"bench": "no", "bus": "yes", "highway": "bus_stop", "name": "Best Buy", "network": "Broome County Transit", "network:short": "BC Transit", "network:wikidata": "Q4975274", "operator": "Broome County Department of Public Transportation", "public_transport": "platform", "shelter": "no"}}, {"type": "node", "id": 12433909285, "lat": 42.0964673, "lon": -75.9824912, "tags": {"bench": "no", "bus": "yes", "highway": "bus_stop", "network": "Broome County Transit", "network:short": "BC Transit", "network:wikidata": "Q4975274", "operator": "Broome County Department of Public Transportation", "public_transport": "platform", "shelter": "no"}}, {"type": "node", "id": 12433909286, "lat": 42.0960859, "lon": -75.9784884, "tags": {"bench": "no", "bus": "yes", "highway": "bus_stop", "network": "Broome County Transit", "network:short": "BC Transit", "network:wikidata": "Q4975274", "operator": "Broome County Department of Public Transportation", "public_transport": "platform", "shelter": "no"}}, {"type": "node", "id": 12433909287, "lat": 42.095307, "lon": -75.9753302, "tags": {"bench": "yes", "bus": "yes", "highway": "bus_stop", "network": "Broome County Transit", "network:short": "BC Transit", "network:wikidata": "Q4975274", "operator": "Broome County Department of Public Transportation", "public_transport": "platform", "shelter": "yes"}}, {"type": "node", "id": 12433909288, "lat": 42.0964059, "lon": -75.9670055, "tags": {"bench": "yes", "bus": "yes", "highway": "bus_stop", "name": "UHS", "network": "Broome County Transit", "network:short": "BC Transit", "network:wikidata": "Q4975274", "operator": "Broome County Department of Public Transportation", "public_transport": "platform", "shelter": "yes"}}, {"type": "node", "id": 12461168162, "lat": 42.0878161, "lon": -76.0538991, "tags": {"bench": "yes", "bus": "yes", "highway": "bus_stop", "network": "Broome County Transit", "network:short": "BC Transit", "network:wikidata": "Q4975274", "operator": "Broome County Department of Public Transportation", "public_transport": "platform", "shelter": "yes"}}, {"type": "node", "id": 12657876470, "lat": 42.0972675, "lon": -75.9103677, "tags": {"bench": "no", "bus": "yes", "highway": "bus_stop", "name": "Hawley St / Exchange St", "network": "Broome County Transit", "network:short": "BC Transit", "network:wikidata": "Q4975274", "operator": "Broome County Department of Public Transportation", "public_transport": "platform", "shelter": "no"}}, {"type": "node", "id": 12657876472, "lat": 42.0981876, "lon": -75.9146209, "tags": {"bench": "no", "bus": "yes", "highway": "bus_stop", "name": "Hawley St / Court St", "network": "Broome County Transit", "network:short": "BC Transit", "network:wikidata": "Q4975274", "operator": "Broome County Department of Public Transportation", "public_transport": "platform", "shelter": "no"}}, {"type": "node", "id": 12657876473, "lat": 42.0927585, "lon": -75.9217461, "tags": {"bench": "no", "bus": "yes", "highway": "bus_stop", "name": "Riverside / Oak", "network": "Broome County Transit", "network:short": "BC Transit", "network:wikidata": "Q4975274", "operator": "Broome County Department of Public Transportation", "public_transport": "platform", "shelter": "no"}}, {"type": "node", "id": 12657876474, "lat": 42.0923891, "lon": -75.9253884, "tags": {"bench": "no", "bus": "yes", "highway": "bus_stop", "name": "Riverside / St John Ave", "network": "Broome County Transit", "network:short": "BC Transit", "network:wikidata": "Q4975274", "operator": "Broome County Department of Public Transportation", "public_transport": "platform", "shelter": "no"}}, {"type": "node", "id": 12657876475, "lat": 42.092269, "lon": -75.9286332, "tags": {"bench": "no", "bus": "yes", "highway": "bus_stop", "name": "Riverside / Millard", "network": "Broome County Transit", "network:short": "BC Transit", "network:wikidata": "Q4975274", "operator": "Broome County Department of Public Transportation", "public_transport": "platform", "shelter": "no"}}, {"type": "node", "id": 12657876476, "lat": 42.0922078, "lon": -75.9301595, "tags": {"bench": "no", "bus": "yes", "highway": "bus_stop", "name": "Riverside / Laurel", "network": "Broome County Transit", "network:short": "BC Transit", "network:wikidata": "Q4975274", "operator": "Broome County Department of Public Transportation", "public_transport": "platform", "shelter": "no"}}, {"type": "node", "id": 12657876477, "lat": 42.0921394, "lon": -75.9320733, "tags": {"bench": "no", "bus": "yes", "highway": "bus_stop", "name": "Riverside / Avon", "network": "Broome County Transit", "network:short": "BC Transit", "network:wikidata": "Q4975274", "operator": "Broome County Department of Public Transportation", "public_transport": "platform", "shelter": "no"}}, {"type": "node", "id": 12657876478, "lat": 42.0925831, "lon": -75.9348362, "tags": {"bench": "no", "bus": "yes", "highway": "bus_stop", "name": "Riverside / Beethoven", "network": "Broome County Transit", "network:short": "BC Transit", "network:wikidata": "Q4975274", "operator": "Broome County Department of Public Transportation", "public_transport": "platform", "shelter": "no"}}, {"type": "node", "id": 12657876479, "lat": 42.0939363, "lon": -75.9395112, "tags": {"bench": "no", "bus": "yes", "highway": "bus_stop", "name": "Riverside / Helen", "network": "Broome County Transit", "network:short": "BC Transit", "network:wikidata": "Q4975274", "operator": "Broome County Department of Public Transportation", "public_transport": "platform", "shelter": "no"}}, {"type": "node", "id": 12657876480, "lat": 42.0948486, "lon": -75.9421533, "tags": {"bench": "no", "bus": "yes", "highway": "bus_stop", "network": "Broome County Transit", "network:short": "BC Transit", "network:wikidata": "Q4975274", "operator": "Broome County Department of Public Transportation", "public_transport": "platform", "shelter": "no"}}, {"type": "node", "id": 12657876481, "lat": 42.0956791, "lon": -75.944337, "tags": {"bench": "no", "bus": "yes", "highway": "bus_stop", "name": "Riverside / Crary", "network": "Broome County Transit", "network:short": "BC Transit", "network:wikidata": "Q4975274", "operator": "Broome County Department of Public Transportation", "public_transport": "platform", "shelter": "no"}}, {"type": "node", "id": 12657876482, "lat": 42.0966428, "lon": -75.9464254, "tags": {"bench": "no", "bus": "yes", "highway": "bus_stop", "name": "Riverside / Westend", "network": "Broome County Transit", "network:short": "BC Transit", "network:wikidata": "Q4975274", "operator": "Broome County Department of Public Transportation", "public_transport": "platform", "shelter": "no"}}, {"type": "node", "id": 12657876483, "lat": 42.0975387, "lon": -75.9480399, "tags": {"bench": "no", "bus": "yes", "highway": "bus_stop", "name": "Riverside / Patricia", "network": "Broome County Transit", "network:short": "BC Transit", "network:wikidata": "Q4975274", "operator": "Broome County Department of Public Transportation", "public_transport": "platform", "shelter": "no"}}, {"type": "node", "id": 12657876484, "lat": 42.0981409, "lon": -75.9491688, "tags": {"bench": "no", "bus": "yes", "highway": "bus_stop", "name": "Riverside / Margaret", "network": "Broome County Transit", "network:short": "BC Transit", "network:wikidata": "Q4975274", "operator": "Broome County Department of Public Transportation", "public_transport": "platform", "shelter": "no"}}, {"type": "node", "id": 12657876485, "lat": 42.0988402, "lon": -75.9512817, "tags": {"bench": "no", "bus": "yes", "highway": "bus_stop", "name": "Riverside / Burbank", "network": "Broome County Transit", "network:short": "BC Transit", "network:wikidata": "Q4975274", "operator": "Broome County Department of Public Transportation", "public_transport": "platform", "shelter": "no"}}, {"type": "node", "id": 12657876486, "lat": 42.0994571, "lon": -75.9548807, "tags": {"bench": "no", "bus": "yes", "highway": "bus_stop", "name": "Riverside / Columbus", "network": "Broome County Transit", "network:short": "BC Transit", "network:wikidata": "Q4975274", "operator": "Broome County Department of Public Transportation", "public_transport": "platform", "shelter": "no"}}, {"type": "node", "id": 12657876487, "lat": 42.0996753, "lon": -75.956548, "tags": {"bench": "no", "bus": "yes", "highway": "bus_stop", "name": "Riverside / Ackley", "network": "Broome County Transit", "network:short": "BC Transit", "network:wikidata": "Q4975274", "operator": "Broome County Department of Public Transportation", "public_transport": "platform", "shelter": "no"}}, {"type": "node", "id": 12657876488, "lat": 42.1005562, "lon": -75.958895, "tags": {"bench": "no", "bus": "yes", "highway": "bus_stop", "name": "Riverside / Elfred", "network": "Broome County Transit", "network:short": "BC Transit", "network:wikidata": "Q4975274", "operator": "Broome County Department of Public Transportation", "public_transport": "platform", "shelter": "no"}}, {"type": "node", "id": 12657876489, "lat": 42.1022292, "lon": -75.9613028, "tags": {"bench": "no", "bus": "yes", "highway": "bus_stop", "name": "Riverside / Ethel", "network": "Broome County Transit", "network:short": "BC Transit", "network:wikidata": "Q4975274", "operator": "Broome County Department of Public Transportation", "public_transport": "platform", "shelter": "no"}}, {"type": "node", "id": 12657876490, "lat": 42.1032189, "lon": -75.9625615, "tags": {"bench": "no", "bus": "yes", "highway": "bus_stop", "name": "Riverside /  Brewster", "network": "Broome County Transit", "network:short": "BC Transit", "network:wikidata": "Q4975274", "operator": "Broome County Department of Public Transportation", "public_transport": "platform", "shelter": "no"}}, {"type": "node", "id": 12657876491, "lat": 42.1050096, "lon": -75.9646046, "tags": {"bench": "no", "bus": "yes", "highway": "bus_stop", "name": "Riverside / Banks", "network": "Broome County Transit", "network:short": "BC Transit", "network:wikidata": "Q4975274", "operator": "Broome County Department of Public Transportation", "public_transport": "platform", "shelter": "no"}}, {"type": "node", "id": 12657876492, "lat": 42.096638, "lon": -76.0049338, "tags": {"bench": "no", "bus": "yes", "highway": "bus_stop", "name": "Sycamore / Stewart", "network": "Broome County Transit", "network:short": "BC Transit", "network:wikidata": "Q4975274", "operator": "Broome County Department of Public Transportation", "public_transport": "platform", "shelter": "no"}}, {"type": "node", "id": 12657876493, "lat": 42.0970651, "lon": -76.0077627, "tags": {"bench": "yes", "bus": "yes", "highway": "bus_stop", "name": "Town Square Mall / Barnes&Noble", "network": "Broome County Transit", "network:short": "BC Transit", "network:wikidata": "Q4975274", "operator": "Broome County Department of Public Transportation", "public_transport": "platform", "shelter": "yes"}}, {"type": "node", "id": 12657876494, "lat": 42.0961067, "lon": -76.012652, "tags": {"bench": "yes", "bus": "yes", "highway": "bus_stop", "name": "Town Square Mall / TJ Maxx", "network": "Broome County Transit", "network:short": "BC Transit", "network:wikidata": "Q4975274", "operator": "Broome County Department of Public Transportation", "public_transport": "platform", "shelter": "no"}}, {"type": "node", "id": 12682474564, "lat": 42.0953055, "lon": -76.0144073, "tags": {"bench": "no", "bus": "yes", "highway": "bus_stop", "name": "African Rd / Vestal Pkwy", "network": "Broome County Transit", "network:short": "BC Transit", "network:wikidata": "Q4975274", "operator": "Broome County Department of Public Transportation", "public_transport": "platform", "shelter": "no"}}, {"type": "node", "id": 12682522091, "lat": 42.0929074, "lon": -76.0230079, "tags": {"bench": "no", "bus": "yes", "highway": "bus_stop", "name": "434 E / Ridgehaven", "network": "Broome County Transit", "network:short": "BC Transit", "network:wikidata": "Q4975274", "operator": "Broome County Department of Public Transportation", "public_transport": "platform", "shelter": "no"}}, {"type": "node", "id": 12682522092, "lat": 42.090086, "lon": -76.0382383, "tags": {"bench": "no", "bus": "yes", "highway": "bus_stop", "name": "434 E / Airborne", "network": "Broome County Transit", "network:short": "BC Transit", "network:wikidata": "Q4975274", "operator": "Broome County Department of Public Transportation", "public_transport": "platform", "shelter": "no"}}, {"type": "node", "id": 12684831689, "lat": 42.0991105, "lon": -75.8957923, "tags": {"bench": "no", "bus": "yes", "highway": "bus_stop", "name": "Tompkins / Webster", "network": "Broome County Transit", "network:short": "BC Transit", "network:wikidata": "Q4975274", "operator": "Broome County Department of Public Transportation", "public_transport": "platform", "shelter": "no"}}, {"type": "node", "id": 12684831690, "lat": 42.0979775, "lon": -75.8952641, "tags": {"bench": "no", "bus": "yes", "highway": "bus_stop", "name": "Tompkins / Jackson", "network": "Broome County Transit", "network:short": "BC Transit", "network:wikidata": "Q4975274", "operator": "Broome County Department of Public Transportation", "public_transport": "platform", "shelter": "no"}}, {"type": "node", "id": 12684831691, "lat": 42.0967432, "lon": -75.8946715, "tags": {"bench": "no", "bus": "yes", "highway": "bus_stop", "name": "Tompkins / Belden", "network": "Broome County Transit", "network:short": "BC Transit", "network:wikidata": "Q4975274", "operator": "Broome County Department of Public Transportation", "public_transport": "platform", "shelter": "no"}}, {"type": "node", "id": 12684831692, "lat": 42.099604, "lon": -75.8807552, "tags": {"bench": "no", "bus": "yes", "highway": "bus_stop", "name": "Conklin / Bond", "network": "Broome County Transit", "network:short": "BC Transit", "network:wikidata": "Q4975274", "operator": "Broome County Department of Public Transportation", "public_transport": "platform", "shelter": "no"}}, {"type": "node", "id": 12684831693, "lat": 42.0987361, "lon": -75.8835702, "tags": {"bench": "no", "bus": "yes", "highway": "bus_stop", "name": "Conklin / Duke", "network": "Broome County Transit", "network:short": "BC Transit", "network:wikidata": "Q4975274", "operator": "Broome County Department of Public Transportation", "public_transport": "platform", "shelter": "no"}}, {"type": "node", "id": 12684831694, "lat": 42.0977251, "lon": -75.8861972, "tags": {"bench": "no", "bus": "yes", "highway": "bus_stop", "name": "Conklin / Bedford", "network": "Broome County Transit", "network:short": "BC Transit", "network:wikidata": "Q4975274", "operator": "Broome County Department of Public Transportation", "public_transport": "platform", "shelter": "no"}}, {"type": "node", "id": 12684831695, "lat": 42.0969007, "lon": -75.8879292, "tags": {"bench": "no", "bus": "yes", "highway": "bus_stop", "name": "Conklin / Burr", "network": "Broome County Transit", "network:short": "BC Transit", "network:wikidata": "Q4975274", "operator": "Broome County Department of Public Transportation", "public_transport": "platform", "shelter": "no"}}, {"type": "node", "id": 12684831696, "lat": 42.0957928, "lon": -75.89077, "tags": {"bench": "yes", "bus": "yes", "highway": "bus_stop", "name": "Conklin / Baldwin", "network": "Broome County Transit", "network:short": "BC Transit", "network:wikidata": "Q4975274", "operator": "Broome County Department of Public Transportation", "public_transport": "platform", "shelter": "yes"}}, {"type": "node", "id": 12684831697, "lat": 42.0953223, "lon": -75.8933956, "tags": {"bench": "no", "bus": "yes", "highway": "bus_stop", "name": "Conklin / Tompkins", "network": "Broome County Transit", "network:short": "BC Transit", "network:wikidata": "Q4975274", "operator": "Broome County Department of Public Transportation", "public_transport": "platform", "shelter": "no"}}, {"type": "node", "id": 12684831698, "lat": 42.0966288, "lon": -75.894402, "tags": {"bench": "no", "bus": "yes", "highway": "bus_stop", "name": "Tompkins / Belden", "network": "Broome County Transit", "network:short": "BC Transit", "network:wikidata": "Q4975274", "operator": "Broome County Department of Public Transportation", "public_transport": "platform", "shelter": "no"}}, {"type": "node", "id": 12684831699, "lat": 42.0977899, "lon": -75.8949508, "tags": {"bench": "no", "bus": "yes", "highway": "bus_stop", "name": "Tompkins / Jackson", "network": "Broome County Transit", "network:short": "BC Transit", "network:wikidata": "Q4975274", "operator": "Broome County Department of Public Transportation", "public_transport": "platform", "shelter": "no"}}, {"type": "node", "id": 12684831700, "lat": 42.0991295, "lon": -75.8955907, "tags": {"bench": "no", "bus": "yes", "highway": "bus_stop", "name": "Tompkins / Webster", "network": "Broome County Transit", "network:short": "BC Transit", "network:wikidata": "Q4975274", "operator": "Broome County Department of Public Transportation", "public_transport": "platform", "shelter": "no"}}, {"type": "node", "id": 12688182905, "lat": 42.0918294, "lon": -75.955257, "tags": {"bench": "yes", "bus": "yes", "highway": "bus_stop", "name": "Plaza / Executive Plaza Dr", "network": "Broome County Transit", "network:short": "BC Transit", "network:wikidata": "Q4975274", "operator": "Broome County Department of Public Transportation", "public_transport": "platform", "shelter": "yes"}}, {"type": "node", "id": 12688182906, "lat": 42.0911965, "lon": -75.9554367, "tags": {"bench": "no", "bus": "yes", "highway": "bus_stop", "name": "300 Plaza Dr", "network": "Broome County Transit", "network:short": "BC Transit", "network:wikidata": "Q4975274", "operator": "Broome County Department of Public Transportation", "public_transport": "platform", "shelter": "no"}}, {"type": "node", "id": 12688182907, "lat": 42.1095105, "lon": -76.0400264, "tags": {"bench": "no", "bus": "yes", "highway": "bus_stop", "name": "Watson / Hayes", "network": "Broome County Transit", "network:short": "BC Transit", "network:wikidata": "Q4975274", "operator": "Broome County Department of Public Transportation", "public_transport": "platform", "shelter": "no"}}, {"type": "node", "id": 12688182908, "lat": 42.1096196, "lon": -76.0372593, "tags": {"bench": "no", "bus": "yes", "highway": "bus_stop", "name": "Watson / Taylor", "network": "Broome County Transit", "network:short": "BC Transit", "network:wikidata": "Q4975274", "operator": "Broome County Department of Public Transportation", "public_transport": "platform", "shelter": "no"}}, {"type": "node", "id": 12688182909, "lat": 42.1096803, "lon": -76.0357554, "tags": {"bench": "no", "bus": "yes", "highway": "bus_stop", "name": "Watson / Wilson", "network": "Broome County Transit", "network:short": "BC Transit", "network:wikidata": "Q4975274", "operator": "Broome County Department of Public Transportation", "public_transport": "platform", "shelter": "no"}}, {"type": "node", "id": 12688182910, "lat": 42.1102205, "lon": -76.0313967, "tags": {"bench": "no", "bin": "no", "bus": "yes", "highway": "bus_stop", "name": "Watson / Seward", "network": "Broome County Transit", "network:short": "BC Transit", "network:wikidata": "Q4975274", "operator": "Broome County Department of Public Transportation", "public_transport": "platform", "shelter": "no"}}, {"type": "node", "id": 12688182911, "lat": 42.1102498, "lon": -76.0318443, "tags": {"bench": "no", "bin": "no", "bus": "yes", "highway": "bus_stop", "name": "Watson / Allan", "network": "Broome County Transit", "network:short": "BC Transit", "network:wikidata": "Q4975274", "operator": "Broome County Department of Public Transportation", "public_transport": "platform", "shelter": "no"}}, {"type": "node", "id": 12688182912, "lat": 42.1097762, "lon": -76.0357402, "tags": {"bench": "no", "bus": "yes", "highway": "bus_stop", "name": "Watson / Wilson", "network": "Broome County Transit", "network:short": "BC Transit", "network:wikidata": "Q4975274", "operator": "Broome County Department of Public Transportation", "public_transport": "platform", "shelter": "no"}}, {"type": "node", "id": 12688182913, "lat": 42.1097185, "lon": -76.0373335, "tags": {"bench": "no", "bus": "yes", "highway": "bus_stop", "name": "Watson / Taylor", "network": "Broome County Transit", "network:short": "BC Transit", "network:wikidata": "Q4975274", "operator": "Broome County Department of Public Transportation", "public_transport": "platform", "shelter": "no"}}, {"type": "node", "id": 12688182914, "lat": 42.109629, "lon": -76.0399164, "tags": {"bench": "no", "bus": "yes", "highway": "bus_stop", "name": "Watson / Hayes", "network": "Broome County Transit", "network:short": "BC Transit", "network:wikidata": "Q4975274", "operator": "Broome County Department of Public Transportation", "public_transport": "platform", "shelter": "no"}}, {"type": "node", "id": 12688182915, "lat": 42.1095295, "lon": -76.0426013, "tags": {"bench": "no", "bus": "yes", "highway": "bus_stop", "name": "Watson / N Adams", "network": "Broome County Transit", "network:short": "BC Transit", "network:wikidata": "Q4975274", "operator": "Broome County Department of Public Transportation", "public_transport": "platform", "shelter": "no"}}, {"type": "node", "id": 12688182916, "lat": 42.109426, "lon": -76.0425651, "tags": {"bench": "no", "bus": "yes", "highway": "bus_stop", "name": "Watson / N Adams", "network": "Broome County Transit", "network:short": "BC Transit", "network:wikidata": "Q4975274", "operator": "Broome County Department of Public Transportation", "public_transport": "platform", "shelter": "no"}}, {"type": "node", "id": 12688182917, "lat": 42.1094638, "lon": -76.0444091, "tags": {"bench": "no", "bus": "yes", "highway": "bus_stop", "name": "Watson / N McKinley", "network": "Broome County Transit", "network:short": "BC Transit", "network:wikidata": "Q4975274", "operator": "Broome County Department of Public Transportation", "public_transport": "platform", "shelter": "no"}}, {"type": "node", "id": 12688182918, "lat": 42.1053367, "lon": -76.045451, "tags": {"bench": "no", "bus": "yes", "highway": "bus_stop", "network": "Broome County Transit", "network:short": "BC Transit", "network:wikidata": "Q4975274", "operator": "Broome County Department of Public Transportation", "public_transport": "platform", "shelter": "no"}}]}