{"version": 0.6, "generator": "Overpass API 0.7.62.5 1bd436f1", "osm3s": {"timestamp_osm_base": "2025-04-07T04:08:44Z", "copyright": "The data included in this document is from www.openstreetmap.org. The data is made available under ODbL."}, "elements": [{"type": "node", "id": 8889022999, "lat": 43.0632268, "lon": -76.9934181, "tags": {"bus": "yes", "highway": "bus_stop", "name": "Village Park & Pearl Street", "network": "Regional Transit Service", "network:short": "RTS", "network:wikidata": "Q128016163", "operator": "Rochester-Genesee Regional Transportation Authority", "operator:short": "RGRTA", "operator:wikidata": "Q7353936", "public_transport": "platform", "shelter": "separate"}}, {"type": "node", "id": 8891147400, "lat": 42.8691984, "lon": -76.9821418, "tags": {"bus": "yes", "highway": "bus_stop", "name": "Geneva Transit Hub", "network": "RTS Ontario", "network:wikidata": "Q128019458", "operator": "Rochester-Genesee Regional Transportation Authority", "operator:short": "RGRTA", "operator:wikidata": "Q7353936", "public_transport": "platform", "shelter": "separate"}}, {"type": "node", "id": 8895970562, "lat": 43.0845683, "lon": -76.869109, "tags": {"bus": "yes", "highway": "bus_stop", "name": "Routes 31 & 414", "network": "RTS Wayne", "network:wikidata": "Q128019471", "operator": "Rochester-Genesee Regional Transportation Authority", "operator:short": "RGRTA", "operator:wikidata": "Q7353936", "public_transport": "platform", "shelter": "yes"}}, {"type": "node", "id": 8895970571, "lat": 43.153385, "lon": -76.8783768, "tags": {"bus": "yes", "highway": "bus_stop", "name": "Fire Hall", "network": "RTS Wayne", "network:wikidata": "Q128019471", "operator": "Rochester-Genesee Regional Transportation Authority", "operator:short": "RGRTA", "operator:wikidata": "Q7353936", "public_transport": "platform", "shelter": "no"}}, {"type": "node", "id": 8895970572, "lat": 43.1854797, "lon": -76.8926015, "tags": {"bus": "yes", "highway": "bus_stop", "name": "North Main Street & Railroad Avenue", "network": "RTS Wayne", "network:wikidata": "Q128019471", "operator": "Rochester-Genesee Regional Transportation Authority", "operator:short": "RGRTA", "operator:wikidata": "Q7353936", "public_transport": "platform", "shelter": "no"}}, {"type": "node", "id": 8895970588, "lat": 43.2114017, "lon": -76.8131264, "tags": {"bus": "yes", "highway": "bus_stop", "name": "Wolcott Estates", "network": "RTS Wayne", "network:wikidata": "Q128019471", "operator": "Rochester-Genesee Regional Transportation Authority", "operator:short": "RGRTA", "operator:wikidata": "Q7353936", "public_transport": "platform", "shelter": "no"}}, {"type": "node", "id": 8895970589, "lat": 43.2156617, "lon": -76.8145989, "tags": {"bus": "yes", "highway": "bus_stop", "name": "Wolcott Library", "network": "RTS Wayne", "network:wikidata": "Q128019471", "operator": "Rochester-Genesee Regional Transportation Authority", "operator:short": "RGRTA", "operator:wikidata": "Q7353936", "public_transport": "platform", "shelter": "no"}}, {"type": "node", "id": 8895970604, "lat": 43.2209336, "lon": -76.8162114, "tags": {"bus": "yes", "highway": "bus_stop", "name": "West Main Street & Northup Avenue", "network": "RTS Wayne", "network:wikidata": "Q128019471", "operator": "Rochester-Genesee Regional Transportation Authority", "operator:short": "RGRTA", "operator:wikidata": "Q7353936", "public_transport": "platform", "shelter": "yes"}}, {"type": "node", "id": 8895970605, "lat": 43.2208593, "lon": -76.8070905, "tags": {"bus": "yes", "highway": "bus_stop", "name": "Wolcott Meadows", "network": "RTS Wayne", "network:wikidata": "Q128019471", "operator": "Rochester-Genesee Regional Transportation Authority", "operator:short": "RGRTA", "operator:wikidata": "Q7353936", "public_transport": "platform", "shelter": "no"}}, {"type": "node", "id": 8895970606, "lat": 43.2274473, "lon": -76.7683326, "tags": {"bus": "yes", "highway": "bus_stop", "name": "Wolcott Medical Center", "network": "RTS Wayne", "network:wikidata": "Q128019471", "operator": "Rochester-Genesee Regional Transportation Authority", "operator:short": "RGRTA", "operator:wikidata": "Q7353936", "public_transport": "platform", "shelter": "no"}}, {"type": "node", "id": 8895998731, "lat": 43.2453687, "lon": -76.7257485, "tags": {"bus": "yes", "highway": "bus_stop", "name": "U.S. Post Office", "network": "RTS Wayne", "network:wikidata": "Q128019471", "operator": "Rochester-Genesee Regional Transportation Authority", "operator:short": "RGRTA", "operator:wikidata": "Q7353936", "public_transport": "platform", "shelter": "no"}}, {"type": "node", "id": 8895998732, "lat": 43.2341571, "lon": -76.8359585, "tags": {"bus": "yes", "highway": "bus_stop", "name": "Hope Village", "network": "RTS Wayne", "network:wikidata": "Q128019471", "operator": "Rochester-Genesee Regional Transportation Authority", "operator:short": "RGRTA", "operator:wikidata": "Q7353936", "public_transport": "platform", "shelter": "no"}}, {"type": "node", "id": 8895998733, "lat": 43.2112003, "lon": -76.9806288, "tags": {"bus": "yes", "highway": "bus_stop", "name": "U.S. Post Office", "network": "RTS Wayne", "network:wikidata": "Q128019471", "operator": "Rochester-Genesee Regional Transportation Authority", "operator:short": "RGRTA", "operator:wikidata": "Q7353936", "public_transport": "platform", "shelter": "no"}}, {"type": "node", "id": 8895998737, "lat": 43.2183665, "lon": -77.002521, "tags": {"bus": "yes", "highway": "bus_stop", "name": "Boyd & Ridge Road", "network": "RTS Wayne", "network:wikidata": "Q128019471", "operator": "Rochester-Genesee Regional Transportation Authority", "operator:short": "RGRTA", "operator:wikidata": "Q7353936", "public_transport": "platform", "shelter": "no"}}, {"type": "node", "id": 8895998758, "lat": 43.2303879, "lon": -77.0422347, "tags": {"bus": "yes", "highway": "bus_stop", "name": "Wayne CAP", "network": "RTS Wayne", "network:wikidata": "Q128019471", "operator": "Rochester-Genesee Regional Transportation Authority", "operator:short": "RGRTA", "operator:wikidata": "Q7353936", "public_transport": "platform", "shelter": "no"}}, {"type": "node", "id": 8895998759, "lat": 43.2361855, "lon": -77.0637813, "tags": {"bus": "yes", "highway": "bus_stop", "name": "U.S. Post Office", "network": "RTS Wayne", "network:wikidata": "Q128019471", "operator": "Rochester-Genesee Regional Transportation Authority", "operator:short": "RGRTA", "operator:wikidata": "Q7353936", "public_transport": "platform", "shelter": "yes"}}, {"type": "node", "id": 8895998760, "lat": 43.2310929, "lon": -77.1441188, "tags": {"bus": "yes", "highway": "bus_stop", "name": "U.S. Post Office", "network": "RTS Wayne", "network:wikidata": "Q128019471", "operator": "Rochester-Genesee Regional Transportation Authority", "operator:short": "RGRTA", "operator:wikidata": "Q7353936", "public_transport": "platform", "shelter": "no"}}, {"type": "node", "id": 8895998761, "lat": 43.2239184, "lon": -77.1854704, "tags": {"bus": "yes", "highway": "bus_stop", "name": "Main Street", "network": "RTS Wayne", "network:wikidata": "Q128019471", "operator": "Rochester-Genesee Regional Transportation Authority", "operator:short": "RGRTA", "operator:wikidata": "Q7353936", "public_transport": "platform", "shelter": "yes"}}, {"type": "node", "id": 8895998762, "lat": 43.2239273, "lon": -77.1873528, "tags": {"bus": "yes", "highway": "bus_stop", "name": "Candy Kitchen", "network": "RTS Wayne", "network:wikidata": "Q128019471", "operator": "Rochester-Genesee Regional Transportation Authority", "operator:short": "RGRTA", "operator:wikidata": "Q7353936", "public_transport": "platform", "shelter": "no"}}, {"type": "node", "id": 8895998763, "lat": 43.2295588, "lon": -77.1866393, "tags": {"bus": "yes", "highway": "bus_stop", "name": "Orchard Estates", "network": "RTS Wayne", "network:wikidata": "Q128019471", "operator": "Rochester-Genesee Regional Transportation Authority", "operator:short": "RGRTA", "operator:wikidata": "Q7353936", "public_transport": "platform", "shelter": "no"}}, {"type": "node", "id": 8896450918, "lat": 43.0492623, "lon": -77.0951968, "tags": {"bus": "yes", "highway": "bus_stop", "name": "Reliant Credit Union", "network": "RTS Wayne", "network:wikidata": "Q128019471", "operator": "Rochester-Genesee Regional Transportation Authority", "operator:short": "RGRTA", "operator:wikidata": "Q7353936", "public_transport": "platform", "shelter": "no"}}, {"type": "node", "id": 8896450919, "lat": 43.0454558, "lon": -77.1131744, "tags": {"bus": "yes", "highway": "bus_stop", "name": "Wegmans - Newark Plaza", "network": "RTS Wayne", "network:wikidata": "Q128019471", "operator": "Rochester-Genesee Regional Transportation Authority", "operator:short": "RGRTA", "operator:wikidata": "Q7353936", "public_transport": "platform", "shelter": "no"}}, {"type": "node", "id": 8896450920, "lat": 43.044559, "lon": -77.0939108, "tags": {"bus": "yes", "highway": "bus_stop", "name": "Park Presbyterian Church", "network": "Regional Transit Service", "network:short": "RTS", "network:wikidata": "Q128016163", "operator": "Rochester-Genesee Regional Transportation Authority", "operator:short": "RGRTA", "operator:wikidata": "Q7353936", "public_transport": "platform", "shelter": "no"}}, {"type": "node", "id": 11328544038, "lat": 43.1427739, "lon": -77.1892528, "tags": {"bus": "yes", "highway": "bus_stop", "name": "Main & Maple", "network": "RTS Wayne", "network:wikidata": "Q128019471", "operator": "Rochester-Genesee Regional Transportation Authority", "operator:short": "RGRTA", "operator:wikidata": "Q7353936", "public_transport": "platform", "shelter": "separate"}}, {"type": "node", "id": 11923044392, "lat": 43.0635088, "lon": -77.2314413, "tags": {"bench": "yes", "bus": "yes", "highway": "bus_stop", "name": "Main & Cuyler", "network": "Regional Transit Service", "network:short": "RTS", "network:wikidata": "Q128016163", "operator": "Rochester-Genesee Regional Transportation Authority", "operator:short": "RGRTA", "operator:wikidata": "Q7353936", "public_transport": "platform", "ref": "4296", "shelter": "yes"}}, {"type": "node", "id": 11923044393, "lat": 43.0636997, "lon": -77.2309898, "tags": {"bench": "yes", "bus": "yes", "highway": "bus_stop", "name": "Main & William", "network": "Regional Transit Service", "network:short": "RTS", "network:wikidata": "Q128016163", "operator": "Rochester-Genesee Regional Transportation Authority", "operator:short": "RGRTA", "operator:wikidata": "Q7353936", "public_transport": "platform", "shelter": "no"}}, {"type": "node", "id": 11923044399, "lat": 43.0467299, "lon": -77.1115364, "tags": {"bus": "yes", "highway": "bus_stop", "name": "Newark Plaza", "network": "Regional Transit Service", "network:short": "RTS", "network:wikidata": "Q128016163", "operator": "Rochester-Genesee Regional Transportation Authority", "operator:short": "RGRTA", "operator:wikidata": "Q7353936", "public_transport": "platform", "shelter": "no"}}, {"type": "node", "id": 12029809636, "lat": 43.0522851, "lon": -77.0575972, "tags": {"bus": "yes", "highway": "bus_stop", "name": "Walmart - Newark", "network": "RTS Wayne", "network:wikidata": "Q128019471", "operator": "Rochester-Genesee Regional Transportation Authority", "operator:short": "RGRTA", "operator:wikidata": "Q7353936", "public_transport": "platform", "shelter": "no"}}, {"type": "node", "id": 12029809638, "lat": 43.060294, "lon": -77.1017209, "tags": {"bus": "yes", "highway": "bus_stop", "name": "Newark Hospital", "network": "RTS Wayne", "network:wikidata": "Q128019471", "operator": "Rochester-Genesee Regional Transportation Authority", "operator:short": "RGRTA", "operator:wikidata": "Q7353936", "public_transport": "platform", "shelter": "no"}}, {"type": "node", "id": 12029809639, "lat": 43.0615845, "lon": -77.0302521, "tags": {"bus": "yes", "highway": "bus_stop", "name": "Lyons - Behavioral Health", "network": "RTS Wayne", "network:wikidata": "Q128019471", "operator": "Rochester-Genesee Regional Transportation Authority", "operator:short": "RGRTA", "operator:wikidata": "Q7353936", "public_transport": "platform", "shelter": "no"}}, {"type": "node", "id": 12030051591, "lat": 43.0631836, "lon": -77.2285062, "tags": {"bus": "yes", "highway": "bus_stop", "name": "Palmyra Library", "network": "RTS Wayne", "network:wikidata": "Q128019471", "operator": "Rochester-Genesee Regional Transportation Authority", "operator:short": "RGRTA", "operator:wikidata": "Q7353936", "public_transport": "platform", "shelter": "no"}}, {"type": "node", "id": 12030051592, "lat": 43.0621969, "lon": -77.1015599, "tags": {"bus": "yes", "highway": "bus_stop", "name": "Newark Hospital Lab", "network": "RTS Wayne", "network:wikidata": "Q128019471", "operator": "Rochester-Genesee Regional Transportation Authority", "operator:short": "RGRTA", "operator:wikidata": "Q7353936", "public_transport": "platform", "shelter": "no"}}, {"type": "node", "id": 12031056884, "lat": 43.0265423, "lon": -77.0905723, "tags": {"bus": "yes", "highway": "bus_stop", "name": "Finger Lakes Community College - Newark Campus", "network": "RTS Wayne", "network:wikidata": "Q128019471", "operator": "Rochester-Genesee Regional Transportation Authority", "operator:short": "RGRTA", "operator:wikidata": "Q7353936", "public_transport": "platform", "shelter": "no"}}, {"type": "node", "id": 12031056885, "lat": 43.0492912, "lon": -77.095419, "tags": {"bus": "yes", "highway": "bus_stop", "name": "Reliant Credit Union", "network": "RTS Wayne", "network:wikidata": "Q128019471", "operator": "Rochester-Genesee Regional Transportation Authority", "operator:short": "RGRTA", "operator:wikidata": "Q7353936", "public_transport": "platform", "shelter": "no"}}, {"type": "node", "id": 12031056886, "lat": 43.2237648, "lon": -77.1873055, "tags": {"bus": "yes", "highway": "bus_stop", "name": "Candy Kitchen", "network": "RTS Wayne", "network:wikidata": "Q128019471", "operator": "Rochester-Genesee Regional Transportation Authority", "operator:short": "RGRTA", "operator:wikidata": "Q7353936", "public_transport": "platform", "shelter": "no"}}, {"type": "node", "id": 12031056887, "lat": 43.2310097, "lon": -77.143916, "tags": {"bus": "yes", "highway": "bus_stop", "name": "U.S. Post Office", "network": "RTS Wayne", "network:wikidata": "Q128019471", "operator": "Rochester-Genesee Regional Transportation Authority", "operator:short": "RGRTA", "operator:wikidata": "Q7353936", "public_transport": "platform", "shelter": "no"}}, {"type": "node", "id": 12031056893, "lat": 43.2361688, "lon": -77.0708011, "tags": {"bus": "yes", "highway": "bus_stop", "name": "Paton's Market Place", "network": "RTS Wayne", "network:wikidata": "Q128019471", "operator": "Rochester-Genesee Regional Transportation Authority", "operator:short": "RGRTA", "operator:wikidata": "Q7353936", "public_transport": "platform", "shelter": "no"}}, {"type": "node", "id": 12031496718, "lat": 43.090462, "lon": -76.8763393, "tags": {"bus": "yes", "highway": "bus_stop", "name": "Clyde Apartments", "network": "RTS Wayne", "network:wikidata": "Q128019471", "operator": "Rochester-Genesee Regional Transportation Authority", "operator:short": "RGRTA", "operator:wikidata": "Q7353936", "public_transport": "platform", "shelter": "no"}}, {"type": "node", "id": 12031851471, "lat": 43.0634442, "lon": -77.2318643, "tags": {"bus": "yes", "highway": "bus_stop", "name": "Palmyra Village Hall", "network": "RTS Wayne", "network:wikidata": "Q128019471", "operator": "Rochester-Genesee Regional Transportation Authority", "operator:short": "RGRTA", "operator:wikidata": "Q7353936", "public_transport": "platform", "shelter": "no"}}, {"type": "node", "id": 12032274769, "lat": 43.2240981, "lon": -77.1855017, "tags": {"bus": "yes", "highway": "bus_stop", "name": "Main Street", "network": "RTS Wayne", "network:wikidata": "Q128019471", "operator": "Rochester-Genesee Regional Transportation Authority", "operator:short": "RGRTA", "operator:wikidata": "Q7353936", "public_transport": "platform", "shelter": "yes"}}, {"type": "node", "id": 12032274770, "lat": 43.2293597, "lon": -77.1867698, "tags": {"bus": "yes", "highway": "bus_stop", "name": "Orchard Estates", "network": "RTS Wayne", "network:wikidata": "Q128019471", "operator": "Rochester-Genesee Regional Transportation Authority", "operator:short": "RGRTA", "operator:wikidata": "Q7353936", "public_transport": "platform", "shelter": "no"}}, {"type": "node", "id": 12032274772, "lat": 43.2305038, "lon": -77.0421348, "tags": {"bus": "yes", "highway": "bus_stop", "name": "Wayne CAP", "network": "RTS Wayne", "network:wikidata": "Q128019471", "operator": "Rochester-Genesee Regional Transportation Authority", "operator:short": "RGRTA", "operator:wikidata": "Q7353936", "public_transport": "platform", "shelter": "no"}}, {"type": "node", "id": 12032274773, "lat": 43.1534019, "lon": -76.8781775, "tags": {"bus": "yes", "highway": "bus_stop", "name": "Fire Hall", "network": "RTS Wayne", "network:wikidata": "Q128019471", "operator": "Rochester-Genesee Regional Transportation Authority", "operator:short": "RGRTA", "operator:wikidata": "Q7353936", "public_transport": "platform", "shelter": "no"}}, {"type": "node", "id": 12032274774, "lat": 43.0345811, "lon": -77.0969425, "tags": {"bus": "yes", "highway": "bus_stop", "name": "Rose Garden Apartments", "network": "RTS Wayne", "network:wikidata": "Q128019471", "operator": "Rochester-Genesee Regional Transportation Authority", "operator:short": "RGRTA", "operator:wikidata": "Q7353936", "public_transport": "platform", "shelter": "no"}}, {"type": "node", "id": 12034971384, "lat": 43.0447493, "lon": -77.0939201, "tags": {"bus": "yes", "highway": "bus_stop", "name": "Park Presbyterian Church", "network": "RTS Wayne", "network:wikidata": "Q128019471", "operator": "Rochester-Genesee Regional Transportation Authority", "operator:short": "RGRTA", "operator:wikidata": "Q7353936", "public_transport": "platform", "shelter": "no"}}, {"type": "node", "id": 12034971416, "lat": 43.218261, "lon": -77.0028428, "tags": {"bus": "yes", "highway": "bus_stop", "name": "Boyd & Ridge Road", "network": "RTS Wayne", "network:wikidata": "Q128019471", "operator": "Rochester-Genesee Regional Transportation Authority", "operator:short": "RGRTA", "operator:wikidata": "Q7353936", "public_transport": "platform", "shelter": "no"}}, {"type": "node", "id": 12038540160, "lat": 43.0653609, "lon": -77.2307021, "tags": {"bus": "yes", "highway": "bus_stop", "name": "Towpath Manor Apartments", "network": "RTS Wayne", "network:wikidata": "Q128019471", "operator": "Rochester-Genesee Regional Transportation Authority", "operator:short": "RGRTA", "operator:wikidata": "Q7353936", "public_transport": "platform", "shelter": "no"}}, {"type": "node", "id": 12038540161, "lat": 43.1476747, "lon": -77.182296, "tags": {"bus": "yes", "highway": "bus_stop", "name": "Drumlin Estates", "network": "RTS Wayne", "network:wikidata": "Q128019471", "operator": "Rochester-Genesee Regional Transportation Authority", "operator:short": "RGRTA", "operator:wikidata": "Q7353936", "public_transport": "platform", "shelter": "no"}}, {"type": "node", "id": 12038540162, "lat": 43.2364077, "lon": -77.1370797, "tags": {"bus": "yes", "highway": "bus_stop", "name": "Harvest Court Apartments", "network": "RTS Wayne", "network:wikidata": "Q128019471", "operator": "Rochester-Genesee Regional Transportation Authority", "operator:short": "RGRTA", "operator:wikidata": "Q7353936", "public_transport": "platform", "shelter": "no"}}, {"type": "node", "id": 12038540163, "lat": 43.2360274, "lon": -77.0637947, "tags": {"bus": "yes", "highway": "bus_stop", "name": "U.S. Post Office", "network": "RTS Wayne", "network:wikidata": "Q128019471", "operator": "Rochester-Genesee Regional Transportation Authority", "operator:short": "RGRTA", "operator:wikidata": "Q7353936", "public_transport": "platform", "shelter": "no"}}, {"type": "node", "id": 12038540164, "lat": 43.255908, "lon": -77.0651834, "tags": {"bus": "yes", "highway": "bus_stop", "name": "Rochester Regional Health - Myers", "network": "RTS Wayne", "network:wikidata": "Q128019471", "operator": "Rochester-Genesee Regional Transportation Authority", "operator:short": "RGRTA", "operator:wikidata": "Q7353936", "public_transport": "platform"}}, {"type": "node", "id": 12038540165, "lat": 43.2110837, "lon": -76.9805438, "tags": {"bus": "yes", "highway": "bus_stop", "name": "U.S. Post Office", "network": "RTS Wayne", "network:wikidata": "Q128019471", "operator": "Rochester-Genesee Regional Transportation Authority", "operator:short": "RGRTA", "operator:wikidata": "Q7353936", "public_transport": "platform", "shelter": "no"}}, {"type": "node", "id": 12038544180, "lat": 43.2158023, "lon": -76.8147865, "tags": {"bus": "yes", "highway": "bus_stop", "name": "Wolcott Library", "network": "RTS Wayne", "network:wikidata": "Q128019471", "operator": "Rochester-Genesee Regional Transportation Authority", "operator:short": "RGRTA", "operator:wikidata": "Q7353936", "public_transport": "platform", "shelter": "no"}}, {"type": "node", "id": 12038544181, "lat": 43.1854218, "lon": -76.8928221, "tags": {"bus": "yes", "highway": "bus_stop", "name": "North Main Street & Railroad Avenue", "network": "RTS Wayne", "network:wikidata": "Q128019471", "operator": "Rochester-Genesee Regional Transportation Authority", "operator:short": "RGRTA", "operator:wikidata": "Q7353936", "public_transport": "platform", "shelter": "no"}}, {"type": "node", "id": 12038544182, "lat": 43.0646146, "lon": -77.0291457, "tags": {"bus": "yes", "highway": "bus_stop", "name": "Wayne County Nursing Home", "network": "RTS Wayne", "network:wikidata": "Q128019471", "operator": "Rochester-Genesee Regional Transportation Authority", "operator:short": "RGRTA", "operator:wikidata": "Q7353936", "public_transport": "platform", "shelter": "no"}}, {"type": "node", "id": 12038544183, "lat": 43.0670022, "lon": -77.0321089, "tags": {"bus": "yes", "highway": "bus_stop", "name": "Wayne County Sheriff's Department", "network": "RTS Wayne", "network:wikidata": "Q128019471", "operator": "Rochester-Genesee Regional Transportation Authority", "operator:short": "RGRTA", "operator:wikidata": "Q7353936", "public_transport": "platform", "shelter": "no"}}, {"type": "node", "id": 12042650803, "lat": 43.1320022, "lon": -76.766224, "tags": {"bus": "yes", "highway": "bus_stop", "name": "U.S. Post Office", "network": "RTS Wayne", "network:wikidata": "Q128019471", "operator": "Rochester-Genesee Regional Transportation Authority", "operator:short": "RGRTA", "operator:wikidata": "Q7353936", "public_transport": "platform", "shelter": "no"}}, {"type": "node", "id": 12042650835, "lat": 43.0673446, "lon": -76.7602794, "tags": {"bus": "yes", "highway": "bus_stop", "name": "Routes 31 & 89", "network": "RTS Wayne", "network:wikidata": "Q128019471", "operator": "Rochester-Genesee Regional Transportation Authority", "operator:short": "RGRTA", "operator:wikidata": "Q7353936", "public_transport": "platform"}}, {"type": "node", "id": 12042650836, "lat": 43.0705914, "lon": -76.7625386, "tags": {"bus": "yes", "highway": "bus_stop", "name": "Spring Valley Apartments", "network": "RTS Wayne", "network:wikidata": "Q128019471", "operator": "Rochester-Genesee Regional Transportation Authority", "operator:short": "RGRTA", "operator:wikidata": "Q7353936", "public_transport": "platform", "shelter": "no"}}, {"type": "node", "id": 12042650879, "lat": 43.0845838, "lon": -76.8693645, "tags": {"bus": "yes", "highway": "bus_stop", "name": "Routes 31 & 414", "network": "RTS Wayne", "network:wikidata": "Q128019471", "operator": "Rochester-Genesee Regional Transportation Authority", "operator:short": "RGRTA", "operator:wikidata": "Q7353936", "public_transport": "platform", "shelter": "no"}}, {"type": "node", "id": 12044602995, "lat": 43.0671644, "lon": -76.7602776, "tags": {"bus": "yes", "highway": "bus_stop", "name": "Routes 31 & 89", "network": "RTS Wayne", "network:wikidata": "Q128019471", "operator": "Rochester-Genesee Regional Transportation Authority", "operator:short": "RGRTA", "operator:wikidata": "Q7353936", "public_transport": "platform"}}, {"type": "node", "id": 12044602996, "lat": 43.1320227, "lon": -76.7660928, "tags": {"bus": "yes", "highway": "bus_stop", "name": "U.S. Post Office", "network": "RTS Wayne", "network:wikidata": "Q128019471", "operator": "Rochester-Genesee Regional Transportation Authority", "operator:short": "RGRTA", "operator:wikidata": "Q7353936", "public_transport": "platform", "shelter": "no"}}, {"type": "node", "id": 12044602997, "lat": 43.2210477, "lon": -76.816039, "tags": {"bus": "yes", "highway": "bus_stop", "name": "West Main Street & Northup Avenue", "network": "RTS Wayne", "network:wikidata": "Q128019471", "operator": "Rochester-Genesee Regional Transportation Authority", "operator:short": "RGRTA", "operator:wikidata": "Q7353936", "public_transport": "platform", "shelter": "no"}}, {"type": "node", "id": 12044602998, "lat": 43.1428515, "lon": -77.189496, "tags": {"bus": "yes", "highway": "bus_stop", "name": "Main & Maple", "network": "RTS Wayne", "network:wikidata": "Q128019471", "operator": "Rochester-Genesee Regional Transportation Authority", "operator:short": "RGRTA", "operator:wikidata": "Q7353936", "public_transport": "platform", "shelter": "no"}}, {"type": "node", "id": 12044602999, "lat": 43.0654812, "lon": -77.2306861, "tags": {"bus": "yes", "highway": "bus_stop", "name": "Towpath Manor Apartments", "network": "RTS Wayne", "network:wikidata": "Q128019471", "operator": "Rochester-Genesee Regional Transportation Authority", "operator:short": "RGRTA", "operator:wikidata": "Q7353936", "public_transport": "platform", "shelter": "no"}}, {"type": "node", "id": 12047627179, "lat": 42.9079267, "lon": -76.8436937, "tags": {"bus": "yes", "highway": "bus_stop", "name": "County Office Building", "network": "RTS Seneca", "network:wikidata": "Q128019467", "operator": "Rochester-Genesee Regional Transportation Authority", "operator:short": "RGRTA", "operator:wikidata": "Q7353936", "public_transport": "platform", "shelter": "yes"}}, {"type": "node", "id": 12047627181, "lat": 42.9075519, "lon": -76.840203, "tags": {"bus": "yes", "highway": "bus_stop", "name": "Walmart - Seneca Falls", "network": "RTS Seneca", "network:wikidata": "Q128019467", "operator": "Rochester-Genesee Regional Transportation Authority", "operator:short": "RGRTA", "operator:wikidata": "Q7353936", "public_transport": "platform"}}, {"type": "node", "id": 12047627182, "lat": 42.9029634, "lon": -76.846956, "tags": {"bus": "yes", "highway": "bus_stop", "name": "East Main Street Apartments", "network": "RTS Seneca", "network:wikidata": "Q128019467", "operator": "Rochester-Genesee Regional Transportation Authority", "operator:short": "RGRTA", "operator:wikidata": "Q7353936", "public_transport": "platform", "shelter": "no"}}, {"type": "node", "id": 12047627217, "lat": 42.8760611, "lon": -76.9888426, "tags": {"bus": "yes", "highway": "bus_stop", "name": "Geneva Hospital", "network": "RTS Ontario", "network:wikidata": "Q128019458", "operator": "Rochester-Genesee Regional Transportation Authority", "operator:short": "RGRTA", "operator:wikidata": "Q7353936", "public_transport": "platform", "shelter": "no"}}, {"type": "node", "id": 12047627218, "lat": 42.9052561, "lon": -76.8681856, "tags": {"bus": "yes", "highway": "bus_stop", "name": "LaFayette Apartments", "network": "RTS Seneca", "network:wikidata": "Q128019467", "operator": "Rochester-Genesee Regional Transportation Authority", "operator:short": "RGRTA", "operator:wikidata": "Q7353936", "public_transport": "platform"}}, {"type": "node", "id": 12047627219, "lat": 42.9074061, "lon": -76.859593, "tags": {"bus": "yes", "highway": "bus_stop", "name": "Church & Elizabeth", "network": "RTS Seneca", "network:wikidata": "Q128019467", "operator": "Rochester-Genesee Regional Transportation Authority", "operator:short": "RGRTA", "operator:wikidata": "Q7353936", "public_transport": "platform", "shelter": "no"}}, {"type": "node", "id": 12048292610, "lat": 42.9048392, "lon": -76.8238576, "tags": {"bus": "yes", "highway": "bus_stop", "name": "Sauders", "network": "RTS Seneca", "network:wikidata": "Q128019467", "operator": "Rochester-Genesee Regional Transportation Authority", "operator:short": "RGRTA", "operator:wikidata": "Q7353936", "public_transport": "platform", "shelter": "no"}}, {"type": "node", "id": 12048292611, "lat": 42.891173, "lon": -76.7956801, "tags": {"bus": "yes", "highway": "bus_stop", "name": "Hunters Run", "network": "RTS Seneca", "network:wikidata": "Q128019467", "operator": "Rochester-Genesee Regional Transportation Authority", "operator:short": "RGRTA", "operator:wikidata": "Q7353936", "public_transport": "platform", "shelter": "no"}}, {"type": "node", "id": 12048292620, "lat": 42.9042507, "lon": -76.7832927, "tags": {"bus": "yes", "highway": "bus_stop", "name": "Garden & Stevenson", "network": "RTS Seneca", "network:wikidata": "Q128019467", "operator": "Rochester-Genesee Regional Transportation Authority", "operator:short": "RGRTA", "operator:wikidata": "Q7353936", "public_transport": "platform", "shelter": "no"}}, {"type": "node", "id": 12048292629, "lat": 42.9215328, "lon": -76.7887457, "tags": {"bus": "yes", "highway": "bus_stop", "name": "Seneca Falls East Apartments", "network": "RTS Seneca", "network:wikidata": "Q128019467", "operator": "Rochester-Genesee Regional Transportation Authority", "operator:short": "RGRTA", "operator:wikidata": "Q7353936", "public_transport": "platform", "shelter": "no"}}, {"type": "node", "id": 12048292636, "lat": 42.9078576, "lon": -76.8251163, "tags": {"bus": "yes", "highway": "bus_stop", "name": "Stanton Meadows Apartments", "network": "RTS Seneca", "network:wikidata": "Q128019467", "operator": "Rochester-Genesee Regional Transportation Authority", "operator:short": "RGRTA", "operator:wikidata": "Q7353936", "public_transport": "platform", "shelter": "no"}}, {"type": "node", "id": 12048292654, "lat": 42.9074939, "lon": -76.8272217, "tags": {"bus": "yes", "highway": "bus_stop", "name": "Liberty Plaza", "network": "RTS Seneca", "network:wikidata": "Q128019467", "operator": "Rochester-Genesee Regional Transportation Authority", "operator:short": "RGRTA", "operator:wikidata": "Q7353936", "public_transport": "platform", "shelter": "no"}}, {"type": "node", "id": 12048292680, "lat": 42.9063913, "lon": -76.8323384, "tags": {"bus": "yes", "highway": "bus_stop", "name": "Lakeview Heights Apartments", "network": "RTS Seneca", "network:wikidata": "Q128019467", "operator": "Rochester-Genesee Regional Transportation Authority", "operator:short": "RGRTA", "operator:wikidata": "Q7353936", "public_transport": "platform", "shelter": "no"}}, {"type": "node", "id": 12048293221, "lat": 42.9041118, "lon": -76.8350224, "tags": {"bus": "yes", "highway": "bus_stop", "name": "Tops - Seneca Falls", "network": "RTS Seneca", "network:wikidata": "Q128019467", "operator": "Rochester-Genesee Regional Transportation Authority", "operator:short": "RGRTA", "operator:wikidata": "Q7353936", "public_transport": "platform", "shelter": "no"}}, {"type": "node", "id": 12048293223, "lat": 42.9054859, "lon": -76.8415463, "tags": {"bus": "yes", "highway": "bus_stop", "name": "Seneca County Human Services", "network": "RTS Seneca", "network:wikidata": "Q128019467", "operator": "Rochester-Genesee Regional Transportation Authority", "operator:short": "RGRTA", "operator:wikidata": "Q7353936", "public_transport": "platform", "shelter": "no"}}, {"type": "node", "id": 12077156766, "lat": 42.8846092, "lon": -77.2141282, "tags": {"bus": "yes", "highway": "bus_stop", "name": "Ontario County Complex", "network": "RTS Ontario", "network:wikidata": "Q128019458", "operator": "Rochester-Genesee Regional Transportation Authority", "operator:short": "RGRTA", "operator:wikidata": "Q7353936", "public_transport": "platform", "shelter": "no"}}, {"type": "node", "id": 12079149608, "lat": 42.8836518, "lon": -77.2106574, "tags": {"bus": "yes", "highway": "bus_stop", "name": "Ontario County Complex - Mental Health", "network": "RTS Ontario", "network:wikidata": "Q128019458", "operator": "Rochester-Genesee Regional Transportation Authority", "operator:short": "RGRTA", "operator:wikidata": "Q7353936", "public_transport": "platform"}}, {"type": "node", "id": 12079149609, "lat": 42.8851018, "lon": -77.2116429, "tags": {"bus": "yes", "highway": "bus_stop", "name": "Ontario County Complex - DSS", "network": "RTS Ontario", "network:wikidata": "Q128019458", "operator": "Rochester-Genesee Regional Transportation Authority", "operator:short": "RGRTA", "operator:wikidata": "Q7353936", "public_transport": "platform"}}, {"type": "node", "id": 12079728761, "lat": 42.9558277, "lon": -77.2209719, "tags": {"bus": "yes", "highway": "bus_stop", "name": "Main & Water", "network": "RTS Ontario", "network:wikidata": "Q128019458", "operator": "Rochester-Genesee Regional Transportation Authority", "operator:short": "RGRTA", "operator:wikidata": "Q7353936", "public_transport": "platform", "shelter": "no"}}, {"type": "node", "id": 12079728764, "lat": 42.961536, "lon": -77.1362892, "tags": {"bus": "yes", "highway": "bus_stop", "name": "Spa Apartments", "network": "RTS Ontario", "network:wikidata": "Q128019458", "operator": "Rochester-Genesee Regional Transportation Authority", "operator:short": "RGRTA", "operator:wikidata": "Q7353936", "public_transport": "platform", "shelter": "no"}}, {"type": "node", "id": 12079728765, "lat": 42.9575827, "lon": -77.0570232, "tags": {"bus": "yes", "highway": "bus_stop", "name": "Phelps Town Hall", "network": "RTS Ontario", "network:wikidata": "Q128019458", "operator": "Rochester-Genesee Regional Transportation Authority", "operator:short": "RGRTA", "operator:wikidata": "Q7353936", "public_transport": "platform", "shelter": "no"}}, {"type": "node", "id": 12079728766, "lat": 42.9474076, "lon": -77.0132938, "tags": {"bus": "yes", "highway": "bus_stop", "name": "Route 96 & County Road 6", "network": "RTS Ontario", "network:wikidata": "Q128019458", "operator": "Rochester-Genesee Regional Transportation Authority", "operator:short": "RGRTA", "operator:wikidata": "Q7353936", "public_transport": "platform", "shelter": "no"}}, {"type": "node", "id": 12079728767, "lat": 42.9472015, "lon": -77.0134869, "tags": {"bus": "yes", "highway": "bus_stop", "name": "Route 96 & County Road 6", "network": "RTS Ontario", "network:wikidata": "Q128019458", "operator": "Rochester-Genesee Regional Transportation Authority", "operator:short": "RGRTA", "operator:wikidata": "Q7353936", "public_transport": "platform", "shelter": "no"}}, {"type": "node", "id": 12079728768, "lat": 42.9574325, "lon": -77.0572029, "tags": {"bus": "yes", "highway": "bus_stop", "name": "Phelps Town Hall", "network": "RTS Ontario", "network:wikidata": "Q128019458", "operator": "Rochester-Genesee Regional Transportation Authority", "operator:short": "RGRTA", "operator:wikidata": "Q7353936", "public_transport": "platform", "shelter": "no"}}, {"type": "node", "id": 12079739681, "lat": 42.9592036, "lon": -77.1366875, "tags": {"bus": "yes", "highway": "bus_stop", "name": "Clifton Springs Hospital", "network": "RTS Ontario", "network:wikidata": "Q128019458", "operator": "Rochester-Genesee Regional Transportation Authority", "operator:short": "RGRTA", "operator:wikidata": "Q7353936", "public_transport": "platform", "shelter": "yes"}}, {"type": "node", "id": 12079739682, "lat": 42.961377, "lon": -77.1362275, "tags": {"bus": "yes", "highway": "bus_stop", "name": "Spa Apartments", "network": "RTS Ontario", "network:wikidata": "Q128019458", "operator": "Rochester-Genesee Regional Transportation Authority", "operator:short": "RGRTA", "operator:wikidata": "Q7353936", "public_transport": "platform", "shelter": "no"}}, {"type": "node", "id": 12079739683, "lat": 42.9685362, "lon": -77.1407604, "tags": {"bus": "yes", "highway": "bus_stop", "name": "Tops - Clifton Springs", "network": "RTS Ontario", "network:wikidata": "Q128019458", "operator": "Rochester-Genesee Regional Transportation Authority", "operator:short": "RGRTA", "operator:wikidata": "Q7353936", "public_transport": "platform", "shelter": "no"}}, {"type": "node", "id": 12079739695, "lat": 42.9607734, "lon": -77.2297789, "tags": {"bus": "yes", "highway": "bus_stop", "name": "Bliss Shurfine", "network": "RTS Ontario", "network:wikidata": "Q128019458", "operator": "Rochester-Genesee Regional Transportation Authority", "operator:short": "RGRTA", "operator:wikidata": "Q7353936", "public_transport": "platform", "shelter": "no"}}, {"type": "node", "id": 12079739696, "lat": 42.9557109, "lon": -77.2209638, "tags": {"bus": "yes", "highway": "bus_stop", "name": "Main & Sheldon", "network": "RTS Ontario", "network:wikidata": "Q128019458", "operator": "Rochester-Genesee Regional Transportation Authority", "operator:short": "RGRTA", "operator:wikidata": "Q7353936", "public_transport": "platform", "shelter": "no"}}, {"type": "node", "id": 12080343589, "lat": 42.8704024, "lon": -76.9848607, "tags": {"bus": "yes", "highway": "bus_stop", "name": "Elmcrest Apartments", "network": "RTS Ontario", "network:wikidata": "Q128019458", "operator": "Rochester-Genesee Regional Transportation Authority", "operator:short": "RGRTA", "operator:wikidata": "Q7353936", "public_transport": "platform"}}, {"type": "node", "id": 12080343590, "lat": 42.8804946, "lon": -76.9655953, "tags": {"bus": "yes", "highway": "bus_stop", "name": "Courtyard Apartments", "network": "RTS Ontario", "network:wikidata": "Q128019458", "operator": "Rochester-Genesee Regional Transportation Authority", "operator:short": "RGRTA", "operator:wikidata": "Q7353936", "public_transport": "platform"}}, {"type": "node", "id": 12080343628, "lat": 42.8669401, "lon": -76.9873036, "tags": {"bus": "yes", "highway": "bus_stop", "name": "FLCC Geneva Campus", "network": "RTS Ontario", "network:wikidata": "Q128019458", "operator": "Rochester-Genesee Regional Transportation Authority", "operator:short": "RGRTA", "operator:wikidata": "Q7353936", "public_transport": "platform"}}]}