{"version": 0.6, "generator": "Overpass API 0.7.62.5 1bd436f1", "osm3s": {"timestamp_osm_base": "2025-04-07T04:08:44Z", "copyright": "The data included in this document is from www.openstreetmap.org. The data is made available under ODbL."}, "elements": [{"type": "node", "id": 12045153936, "lat": 42.7243129, "lon": -77.8731253, "tags": {"bus": "yes", "highway": "bus_stop", "name": "Village Parking Lot", "network": "RTS Livingston", "network:wikidata": "Q128019453", "operator": "Rochester-Genesee Regional Transportation Authority", "operator:short": "RGRTA", "operator:wikidata": "Q7353936", "public_transport": "platform"}}, {"type": "node", "id": 12045153965, "lat": 42.5796409, "lon": -77.9425649, "tags": {"bus": "yes", "highway": "bus_stop", "name": "M&T Bank - Nunda", "network": "RTS Livingston", "network:wikidata": "Q128019453", "operator": "Rochester-Genesee Regional Transportation Authority", "operator:short": "RGRTA", "operator:wikidata": "Q7353936", "public_transport": "platform"}}, {"type": "node", "id": 12045153966, "lat": 42.731425, "lon": -77.8825852, "tags": {"bus": "yes", "highway": "bus_stop", "name": "Livingston County CNR", "network": "RTS Livingston", "network:wikidata": "Q128019453", "operator": "Rochester-Genesee Regional Transportation Authority", "operator:short": "RGRTA", "operator:wikidata": "Q7353936", "public_transport": "platform"}}, {"type": "node", "id": 12045153967, "lat": 42.7723237, "lon": -77.8941175, "tags": {"bus": "yes", "highway": "bus_stop", "name": "7-Eleven - Leicester", "network": "RTS Livingston", "network:wikidata": "Q128019453", "operator": "Rochester-Genesee Regional Transportation Authority", "operator:short": "RGRTA", "operator:wikidata": "Q7353936", "public_transport": "platform"}}, {"type": "node", "id": 12045153968, "lat": 42.7273069, "lon": -77.9918048, "tags": {"bus": "yes", "highway": "bus_stop", "name": "The Cornerstone", "network": "RTS Wyoming", "network:wikidata": "Q128019475", "operator": "Rochester-Genesee Regional Transportation Authority", "operator:short": "RGRTA", "operator:wikidata": "Q7353936", "public_transport": "platform"}}, {"type": "node", "id": 12045179470, "lat": 42.7721805, "lon": -77.8943027, "tags": {"bus": "yes", "highway": "bus_stop", "name": "7-Eleven - Leicester", "network": "RTS Livingston", "network:wikidata": "Q128019453", "operator": "Rochester-Genesee Regional Transportation Authority", "operator:short": "RGRTA", "operator:wikidata": "Q7353936", "public_transport": "platform"}}, {"type": "node", "id": 12046826526, "lat": 42.793533, "lon": -77.8170874, "tags": {"bus": "yes", "highway": "bus_stop", "name": "7-Eleven - Geneseo", "network": "RTS Livingston", "network:wikidata": "Q128019453", "operator": "Rochester-Genesee Regional Transportation Authority", "operator:short": "RGRTA", "operator:wikidata": "Q7353936", "public_transport": "platform", "shelter": "no"}}, {"type": "node", "id": 12046992153, "lat": 42.8309271, "lon": -77.8972032, "tags": {"bus": "yes", "highway": "bus_stop", "name": "Routes 36 & 63", "network": "RTS Livingston", "network:wikidata": "Q128019453", "operator": "Rochester-Genesee Regional Transportation Authority", "operator:short": "RGRTA", "operator:wikidata": "Q7353936", "public_transport": "platform", "shelter": "no"}}, {"type": "node", "id": 12047080206, "lat": 42.7936554, "lon": -77.8169449, "tags": {"bus": "yes", "highway": "bus_stop", "name": "7-Eleven - Geneseo", "network": "RTS Livingston", "network:wikidata": "Q128019453", "operator": "Rochester-Genesee Regional Transportation Authority", "operator:short": "RGRTA", "operator:wikidata": "Q7353936", "public_transport": "platform", "shelter": "no"}}, {"type": "node", "id": 12062363446, "lat": 42.7667203, "lon": -78.1281023, "tags": {"bus": "yes", "highway": "bus_stop", "name": "Walmart - Warsaw", "network": "RTS Wyoming", "network:wikidata": "Q128019475", "operator": "Rochester-Genesee Regional Transportation Authority", "operator:short": "RGRTA", "operator:wikidata": "Q7353936", "public_transport": "platform"}}, {"type": "node", "id": 12062363455, "lat": 42.8186189, "lon": -78.0769787, "tags": {"bus": "yes", "highway": "bus_stop", "name": "Saltvale & Main", "network": "RTS Wyoming", "network:wikidata": "Q128019475", "operator": "Rochester-Genesee Regional Transportation Authority", "operator:short": "RGRTA", "operator:wikidata": "Q7353936", "public_transport": "platform"}}, {"type": "node", "id": 12062363458, "lat": 42.8287286, "lon": -78.0822586, "tags": {"bus": "yes", "highway": "bus_stop", "name": "Sherman & Maple", "network": "RTS Wyoming", "network:wikidata": "Q128019475", "operator": "Rochester-Genesee Regional Transportation Authority", "operator:short": "RGRTA", "operator:wikidata": "Q7353936", "public_transport": "platform"}}, {"type": "node", "id": 12062363459, "lat": 42.8281944, "lon": -78.0882498, "tags": {"bus": "yes", "highway": "bus_stop", "name": "Wyoming Gaslight Market", "network": "RTS Wyoming", "network:wikidata": "Q128019475", "operator": "Rochester-Genesee Regional Transportation Authority", "operator:short": "RGRTA", "operator:wikidata": "Q7353936", "public_transport": "platform"}}, {"type": "node", "id": 12062363460, "lat": 42.7349214, "lon": -78.1324413, "tags": {"bus": "yes", "highway": "bus_stop", "name": "Allen & Main", "network": "RTS Wyoming", "network:wikidata": "Q128019475", "operator": "Rochester-Genesee Regional Transportation Authority", "operator:short": "RGRTA", "operator:wikidata": "Q7353936", "public_transport": "platform"}}, {"type": "node", "id": 12062418270, "lat": 42.7614535, "lon": -78.3133724, "tags": {"addr:city": "Varysburg", "addr:housenumber": "2480", "addr:postcode": "14167", "addr:state": "NY", "addr:street": "Varysburg Road", "bus": "yes", "highway": "bus_stop", "name": "Dollar General - Varysburg", "network": "RTS Wyoming", "network:wikidata": "Q128019475", "operator": "Rochester-Genesee Regional Transportation Authority", "operator:short": "RGRTA", "operator:wikidata": "Q7353936", "public_transport": "platform"}}, {"type": "node", "id": 12062418297, "lat": 42.7551415, "lon": -78.1314752, "tags": {"bus": "yes", "highway": "bus_stop", "name": "Wyoming County CHS", "network": "RTS Wyoming", "network:wikidata": "Q128019475", "operator": "Rochester-Genesee Regional Transportation Authority", "operator:short": "RGRTA", "operator:wikidata": "Q7353936", "public_transport": "platform"}}, {"type": "node", "id": 12062418299, "lat": 42.7454716, "lon": -78.132819, "tags": {"bus": "yes", "highway": "bus_stop", "name": "North & Main", "network": "RTS Wyoming", "network:wikidata": "Q128019475", "operator": "Rochester-Genesee Regional Transportation Authority", "operator:short": "RGRTA", "operator:wikidata": "Q7353936", "public_transport": "platform"}}, {"type": "node", "id": 12062418300, "lat": 42.7385755, "lon": -78.1324702, "tags": {"bus": "yes", "highway": "bus_stop", "name": "Dollar General & 7-Eleven", "network": "RTS Wyoming", "network:wikidata": "Q128019475", "operator": "Rochester-Genesee Regional Transportation Authority", "operator:short": "RGRTA", "operator:wikidata": "Q7353936", "public_transport": "platform"}}, {"type": "node", "id": 12062418312, "lat": 42.7571674, "lon": -78.1283362, "tags": {"bus": "yes", "highway": "bus_stop", "name": "Crestview Terrace Apartments", "network": "RTS Wyoming", "network:wikidata": "Q128019475", "operator": "Rochester-Genesee Regional Transportation Authority", "operator:short": "RGRTA", "operator:wikidata": "Q7353936", "public_transport": "platform"}}, {"type": "node", "id": 12062418336, "lat": 42.7604011, "lon": -78.1289479, "tags": {"bus": "yes", "highway": "bus_stop", "name": "Wyoming County DSS", "network": "RTS Wyoming", "network:wikidata": "Q128019475", "operator": "Rochester-Genesee Regional Transportation Authority", "operator:short": "RGRTA", "operator:wikidata": "Q7353936", "public_transport": "platform"}}, {"type": "node", "id": 12062418337, "lat": 42.7633715, "lon": -78.1259274, "tags": {"bus": "yes", "highway": "bus_stop", "name": "Connect 55", "network": "RTS Wyoming", "network:wikidata": "Q128019475", "operator": "Rochester-Genesee Regional Transportation Authority", "operator:short": "RGRTA", "operator:wikidata": "Q7353936", "public_transport": "platform"}}, {"type": "node", "id": 12063317283, "lat": 42.7597209, "lon": -78.1320016, "tags": {"bus": "yes", "highway": "bus_stop", "name": "Save-A-Lot - Warsaw", "network": "RTS Wyoming", "network:wikidata": "Q128019475", "operator": "Rochester-Genesee Regional Transportation Authority", "operator:short": "RGRTA", "operator:wikidata": "Q7353936", "public_transport": "platform"}}, {"type": "node", "id": 12063317292, "lat": 42.7514419, "lon": -78.1328907, "tags": {"bus": "yes", "highway": "bus_stop", "name": "Microtel - Warsaw", "network": "RTS Wyoming", "network:wikidata": "Q128019475", "operator": "Rochester-Genesee Regional Transportation Authority", "operator:short": "RGRTA", "operator:wikidata": "Q7353936", "public_transport": "platform"}}, {"type": "node", "id": 12063317301, "lat": 42.747594, "lon": -78.1344694, "tags": {"bus": "yes", "highway": "bus_stop", "name": "YMCA - Warsaw", "network": "RTS Wyoming", "network:wikidata": "Q128019475", "operator": "Rochester-Genesee Regional Transportation Authority", "operator:short": "RGRTA", "operator:wikidata": "Q7353936", "public_transport": "platform"}}, {"type": "node", "id": 12063317302, "lat": 42.7428465, "lon": -78.1333557, "tags": {"bus": "yes", "highway": "bus_stop", "name": "Court & Main", "network": "RTS Wyoming", "network:wikidata": "Q128019475", "operator": "Rochester-Genesee Regional Transportation Authority", "operator:short": "RGRTA", "operator:wikidata": "Q7353936", "public_transport": "platform", "shelter": "yes"}}, {"type": "node", "id": 12063317303, "lat": 42.7373853, "lon": -78.1410593, "tags": {"bus": "yes", "highway": "bus_stop", "name": "Brooklyn & Oak", "network": "RTS Wyoming", "network:wikidata": "Q128019475", "operator": "Rochester-Genesee Regional Transportation Authority", "operator:short": "RGRTA", "operator:wikidata": "Q7353936", "public_transport": "platform"}}, {"type": "node", "id": 12063317304, "lat": 42.7395632, "lon": -78.1327802, "tags": {"bus": "yes", "highway": "bus_stop", "name": "U.S. Post Office", "network": "RTS Wyoming", "network:wikidata": "Q128019475", "operator": "Rochester-Genesee Regional Transportation Authority", "operator:short": "RGRTA", "operator:wikidata": "Q7353936", "public_transport": "platform"}}, {"type": "node", "id": 12063317306, "lat": 42.7335742, "lon": -78.1328518, "tags": {"bus": "yes", "highway": "bus_stop", "name": "Jefferson & Main", "network": "RTS Wyoming", "network:wikidata": "Q128019475", "operator": "Rochester-Genesee Regional Transportation Authority", "operator:short": "RGRTA", "operator:wikidata": "Q7353936", "public_transport": "platform"}}, {"type": "node", "id": 12063317307, "lat": 42.8284748, "lon": -78.0880996, "tags": {"bus": "yes", "highway": "bus_stop", "name": "U.S. Post Office", "network": "RTS Wyoming", "network:wikidata": "Q128019475", "operator": "Rochester-Genesee Regional Transportation Authority", "operator:short": "RGRTA", "operator:wikidata": "Q7353936", "public_transport": "platform"}}, {"type": "node", "id": 12063317313, "lat": 42.7433488, "lon": -78.132722, "tags": {"bus": "yes", "highway": "bus_stop", "name": "Wyoming County Courthouse", "network": "RTS Wyoming", "network:wikidata": "Q128019475", "operator": "Rochester-Genesee Regional Transportation Authority", "operator:short": "RGRTA", "operator:wikidata": "Q7353936", "public_transport": "platform"}}, {"type": "node", "id": 12063317314, "lat": 42.686573, "lon": -78.3381058, "tags": {"bus": "yes", "highway": "bus_stop", "name": "Java Country Store", "network": "RTS Wyoming", "network:wikidata": "Q128019475", "operator": "Rochester-Genesee Regional Transportation Authority", "operator:short": "RGRTA", "operator:wikidata": "Q7353936", "public_transport": "platform"}}, {"type": "node", "id": 12063317346, "lat": 42.5347252, "lon": -78.2997493, "tags": {"bus": "yes", "highway": "bus_stop", "name": "Wing Street & Cadwell Road", "network": "RTS Wyoming", "network:wikidata": "Q128019475", "operator": "Rochester-Genesee Regional Transportation Authority", "operator:short": "RGRTA", "operator:wikidata": "Q7353936", "public_transport": "platform"}}, {"type": "node", "id": 12063317347, "lat": 42.5565423, "lon": -78.1526884, "tags": {"bus": "yes", "highway": "bus_stop", "name": "Main & Water", "network": "RTS Wyoming", "network:wikidata": "Q128019475", "operator": "Rochester-Genesee Regional Transportation Authority", "operator:short": "RGRTA", "operator:wikidata": "Q7353936", "public_transport": "platform"}}, {"type": "node", "id": 12063317348, "lat": 42.6833766, "lon": -78.1187538, "tags": {"bus": "yes", "highway": "bus_stop", "name": "Route 19 & Dutton Road", "network": "RTS Wyoming", "network:wikidata": "Q128019475", "operator": "Rochester-Genesee Regional Transportation Authority", "operator:short": "RGRTA", "operator:wikidata": "Q7353936", "public_transport": "platform"}}, {"type": "node", "id": 12063317349, "lat": 42.5768835, "lon": -78.2526712, "tags": {"bus": "yes", "highway": "bus_stop", "name": "Route 39 & Pearl Street", "network": "RTS Wyoming", "network:wikidata": "Q128019475", "operator": "Rochester-Genesee Regional Transportation Authority", "operator:short": "RGRTA", "operator:wikidata": "Q7353936", "public_transport": "platform"}}, {"type": "node", "id": 12063317364, "lat": 42.5544984, "lon": -78.2891735, "tags": {"bus": "yes", "highway": "bus_stop", "name": "Route 39 & Telegraph Road", "network": "RTS Wyoming", "network:wikidata": "Q128019475", "operator": "Rochester-Genesee Regional Transportation Authority", "operator:short": "RGRTA", "operator:wikidata": "Q7353936", "public_transport": "platform"}}, {"type": "node", "id": 12063318402, "lat": 42.6851795, "lon": -78.2057815, "tags": {"bus": "yes", "highway": "bus_stop", "name": "Wethersfield Springs", "network": "RTS Wyoming", "network:wikidata": "Q128019475", "operator": "Rochester-Genesee Regional Transportation Authority", "operator:short": "RGRTA", "operator:wikidata": "Q7353936", "public_transport": "platform"}}, {"type": "node", "id": 12063318403, "lat": 42.647807, "lon": -78.198526, "tags": {"bus": "yes", "highway": "bus_stop", "name": "Hermitage Store", "network": "RTS Wyoming", "network:wikidata": "Q128019475", "operator": "Rochester-Genesee Regional Transportation Authority", "operator:short": "RGRTA", "operator:wikidata": "Q7353936", "public_transport": "platform"}}, {"type": "node", "id": 12063318404, "lat": 42.5794613, "lon": -78.2544327, "tags": {"bus": "yes", "highway": "bus_stop", "name": "Eagle Library", "network": "RTS Wyoming", "network:wikidata": "Q128019475", "operator": "Rochester-Genesee Regional Transportation Authority", "operator:short": "RGRTA", "operator:wikidata": "Q7353936", "public_transport": "platform"}}, {"type": "node", "id": 12063712726, "lat": 42.6409166, "lon": -78.1342567, "tags": {"bus": "yes", "highway": "bus_stop", "name": "U.S. Post Office - Gainesville", "network": "RTS Wyoming", "network:wikidata": "Q128019475", "operator": "Rochester-Genesee Regional Transportation Authority", "operator:short": "RGRTA", "operator:wikidata": "Q7353936", "public_transport": "platform"}}, {"type": "node", "id": 12063712728, "lat": 42.5558955, "lon": -78.153864, "tags": {"bus": "yes", "highway": "bus_stop", "name": "Pike Hardware", "network": "RTS Wyoming", "network:wikidata": "Q128019475", "operator": "Rochester-Genesee Regional Transportation Authority", "operator:short": "RGRTA", "operator:wikidata": "Q7353936", "public_transport": "platform"}}, {"type": "node", "id": 12063712730, "lat": 42.5663533, "lon": -78.044891, "tags": {"bus": "yes", "highway": "bus_stop", "name": "Keith's Citgo", "network": "RTS Wyoming", "network:wikidata": "Q128019475", "operator": "Rochester-Genesee Regional Transportation Authority", "operator:short": "RGRTA", "operator:wikidata": "Q7353936", "public_transport": "platform"}}, {"type": "node", "id": 12063712743, "lat": 42.6227907, "lon": -78.0639007, "tags": {"bus": "yes", "highway": "bus_stop", "name": "Dollar General - Castile", "network": "RTS Wyoming", "network:wikidata": "Q128019475", "operator": "Rochester-Genesee Regional Transportation Authority", "operator:short": "RGRTA", "operator:wikidata": "Q7353936", "public_transport": "platform"}}, {"type": "node", "id": 12063712744, "lat": 42.6329916, "lon": -78.0492319, "tags": {"bus": "yes", "highway": "bus_stop", "name": "U.S. Post Office - Castile", "network": "RTS Wyoming", "network:wikidata": "Q128019475", "operator": "Rochester-Genesee Regional Transportation Authority", "operator:short": "RGRTA", "operator:wikidata": "Q7353936", "public_transport": "platform"}}, {"type": "node", "id": 12063712747, "lat": 42.6373827, "lon": -78.0509963, "tags": {"bus": "yes", "highway": "bus_stop", "name": "Washington Park Apartments", "network": "RTS Wyoming", "network:wikidata": "Q128019475", "operator": "Rochester-Genesee Regional Transportation Authority", "operator:short": "RGRTA", "operator:wikidata": "Q7353936", "public_transport": "platform"}}, {"type": "node", "id": 12063712752, "lat": 42.6597351, "lon": -78.0837522, "tags": {"bus": "yes", "highway": "bus_stop", "name": "Gainesville Public Library", "network": "RTS Wyoming", "network:wikidata": "Q128019475", "operator": "Rochester-Genesee Regional Transportation Authority", "operator:short": "RGRTA", "operator:wikidata": "Q7353936", "public_transport": "platform"}}, {"type": "node", "id": 12063712753, "lat": 42.7424544, "lon": -78.1324729, "tags": {"bus": "yes", "highway": "bus_stop", "name": "Warsaw Public Library", "network": "RTS Wyoming", "network:wikidata": "Q128019475", "operator": "Rochester-Genesee Regional Transportation Authority", "operator:short": "RGRTA", "operator:wikidata": "Q7353936", "public_transport": "platform"}}, {"type": "node", "id": 12063712754, "lat": 42.7414771, "lon": -78.1331537, "tags": {"bus": "yes", "highway": "bus_stop", "name": "Sinclair Pharmacy", "network": "RTS Wyoming", "network:wikidata": "Q128019475", "operator": "Rochester-Genesee Regional Transportation Authority", "operator:short": "RGRTA", "operator:wikidata": "Q7353936", "public_transport": "platform"}}, {"type": "node", "id": 12063712755, "lat": 42.7258593, "lon": -78.0060737, "tags": {"bus": "yes", "highway": "bus_stop", "name": "Perry Marketplace", "network": "RTS Wyoming", "network:wikidata": "Q128019475", "operator": "Rochester-Genesee Regional Transportation Authority", "operator:short": "RGRTA", "operator:wikidata": "Q7353936", "public_transport": "platform"}}, {"type": "node", "id": 12063808623, "lat": 42.7188214, "lon": -78.0146995, "tags": {"bus": "yes", "highway": "bus_stop", "name": "Silver Lake Meadow Apartments", "network": "RTS Wyoming", "network:wikidata": "Q128019475", "operator": "Rochester-Genesee Regional Transportation Authority", "operator:short": "RGRTA", "operator:wikidata": "Q7353936", "public_transport": "platform"}}, {"type": "node", "id": 12063808637, "lat": 42.716475, "lon": -78.0112317, "tags": {"bus": "yes", "highway": "bus_stop", "name": "Champion Place Apartments", "network": "RTS Wyoming", "network:wikidata": "Q128019475", "operator": "Rochester-Genesee Regional Transportation Authority", "operator:short": "RGRTA", "operator:wikidata": "Q7353936", "public_transport": "platform"}}, {"type": "node", "id": 12063808638, "lat": 42.717576, "lon": -78.0033727, "tags": {"bus": "yes", "highway": "bus_stop", "name": "Traver Place", "network": "RTS Wyoming", "network:wikidata": "Q128019475", "operator": "Rochester-Genesee Regional Transportation Authority", "operator:short": "RGRTA", "operator:wikidata": "Q7353936", "public_transport": "platform"}}, {"type": "node", "id": 12063808641, "lat": 42.7112819, "lon": -78.0101143, "tags": {"bus": "yes", "highway": "bus_stop", "name": "Dollar General - Perry", "network": "RTS Wyoming", "network:wikidata": "Q128019475", "operator": "Rochester-Genesee Regional Transportation Authority", "operator:short": "RGRTA", "operator:wikidata": "Q7353936", "public_transport": "platform"}}, {"type": "node", "id": 12063808657, "lat": 42.6982182, "lon": -78.0170135, "tags": {"bus": "yes", "highway": "bus_stop", "name": "Charcoal Corral", "network": "RTS Wyoming", "network:wikidata": "Q128019475", "operator": "Rochester-Genesee Regional Transportation Authority", "operator:short": "RGRTA", "operator:wikidata": "Q7353936", "public_transport": "platform"}}, {"type": "node", "id": 12063808658, "lat": 42.7142894, "lon": -78.0068453, "tags": {"bus": "yes", "highway": "bus_stop", "name": "Creative Foods", "network": "RTS Wyoming", "network:wikidata": "Q128019475", "operator": "Rochester-Genesee Regional Transportation Authority", "operator:short": "RGRTA", "operator:wikidata": "Q7353936", "public_transport": "platform"}}, {"type": "node", "id": 12063808674, "lat": 42.7177683, "lon": -77.9959619, "tags": {"bus": "yes", "highway": "bus_stop", "name": "UR Primary Care - Perry", "network": "RTS Wyoming", "network:wikidata": "Q128019475", "operator": "Rochester-Genesee Regional Transportation Authority", "operator:short": "RGRTA", "operator:wikidata": "Q7353936", "public_transport": "platform"}}, {"type": "node", "id": 12063808752, "lat": 42.7219416, "lon": -77.9945638, "tags": {"bus": "yes", "highway": "bus_stop", "name": "Knitting Mill Apartments", "network": "RTS Wyoming", "network:wikidata": "Q128019475", "operator": "Rochester-Genesee Regional Transportation Authority", "operator:short": "RGRTA", "operator:wikidata": "Q7353936", "public_transport": "platform"}}, {"type": "node", "id": 12063808753, "lat": 42.7201397, "lon": -78.0035752, "tags": {"bus": "yes", "highway": "bus_stop", "name": "Covington & Leicester", "network": "RTS Wyoming", "network:wikidata": "Q128019475", "operator": "Rochester-Genesee Regional Transportation Authority", "operator:short": "RGRTA", "operator:wikidata": "Q7353936", "public_transport": "platform"}}, {"type": "node", "id": 12063808754, "lat": 42.726419, "lon": -78.0054463, "tags": {"bus": "yes", "highway": "bus_stop", "name": "Walgreens - Perry", "network": "RTS Wyoming", "network:wikidata": "Q128019475", "operator": "Rochester-Genesee Regional Transportation Authority", "operator:short": "RGRTA", "operator:wikidata": "Q7353936", "public_transport": "platform"}}, {"type": "node", "id": 12064198356, "lat": 42.7556874, "lon": -78.1285801, "tags": {"bus": "yes", "highway": "bus_stop", "name": "Clarity", "network": "RTS Wyoming", "network:wikidata": "Q128019475", "operator": "Rochester-Genesee Regional Transportation Authority", "operator:short": "RGRTA", "operator:wikidata": "Q7353936", "public_transport": "platform"}}, {"type": "node", "id": 12064198367, "lat": 42.7536948, "lon": -78.1349408, "tags": {"bus": "yes", "highway": "bus_stop", "name": "Pinewood Apartments", "network": "RTS Wyoming", "network:wikidata": "Q128019475", "operator": "Rochester-Genesee Regional Transportation Authority", "operator:short": "RGRTA", "operator:wikidata": "Q7353936", "public_transport": "platform"}}, {"type": "node", "id": 12064198368, "lat": 42.7374597, "lon": -78.1373913, "tags": {"bus": "yes", "highway": "bus_stop", "name": "Liberty & Brooklyn", "network": "RTS Wyoming", "network:wikidata": "Q128019475", "operator": "Rochester-Genesee Regional Transportation Authority", "operator:short": "RGRTA", "operator:wikidata": "Q7353936", "public_transport": "platform"}}, {"type": "node", "id": 12064280762, "lat": 42.8285923, "lon": -78.0879843, "tags": {"bus": "yes", "highway": "bus_stop", "name": "U.S. Post Office", "network": "RTS Wyoming", "network:wikidata": "Q128019475", "operator": "Rochester-Genesee Regional Transportation Authority", "operator:short": "RGRTA", "operator:wikidata": "Q7353936", "public_transport": "platform"}}, {"type": "node", "id": 12065592073, "lat": 42.6330267, "lon": -78.049457, "tags": {"bus": "yes", "highway": "bus_stop", "name": "U.S. Post Office - Castile", "network": "RTS Wyoming", "network:wikidata": "Q128019475", "operator": "Rochester-Genesee Regional Transportation Authority", "operator:short": "RGRTA", "operator:wikidata": "Q7353936", "public_transport": "platform"}}, {"type": "node", "id": 12065592092, "lat": 42.6409117, "lon": -78.1340212, "tags": {"bus": "yes", "highway": "bus_stop", "name": "U.S. Post Office - Gainesville", "network": "RTS Wyoming", "network:wikidata": "Q128019475", "operator": "Rochester-Genesee Regional Transportation Authority", "operator:short": "RGRTA", "operator:wikidata": "Q7353936", "public_transport": "platform"}}, {"type": "node", "id": 12067161648, "lat": 42.6849705, "lon": -78.2055435, "tags": {"bus": "yes", "highway": "bus_stop", "name": "Wethersfield Springs", "network": "RTS Wyoming", "network:wikidata": "Q128019475", "operator": "Rochester-Genesee Regional Transportation Authority", "operator:short": "RGRTA", "operator:wikidata": "Q7353936", "public_transport": "platform"}}, {"type": "node", "id": 12067478700, "lat": 42.5542833, "lon": -78.288998, "tags": {"bus": "yes", "highway": "bus_stop", "name": "Route 39 & Telegraph Road", "network": "RTS Wyoming", "network:wikidata": "Q128019475", "operator": "Rochester-Genesee Regional Transportation Authority", "operator:short": "RGRTA", "operator:wikidata": "Q7353936", "public_transport": "platform"}}, {"type": "node", "id": 12067478718, "lat": 42.5769836, "lon": -78.2529393, "tags": {"bus": "yes", "highway": "bus_stop", "name": "Route 39 & Pearl Street", "network": "RTS Wyoming", "network:wikidata": "Q128019475", "operator": "Rochester-Genesee Regional Transportation Authority", "operator:short": "RGRTA", "operator:wikidata": "Q7353936", "public_transport": "platform"}}, {"type": "node", "id": 12068855282, "lat": 42.5346765, "lon": -78.3000218, "tags": {"bus": "yes", "highway": "bus_stop", "name": "Wing Street & Cadwell Road", "network": "RTS Wyoming", "network:wikidata": "Q128019475", "operator": "Rochester-Genesee Regional Transportation Authority", "operator:short": "RGRTA", "operator:wikidata": "Q7353936", "public_transport": "platform"}}, {"type": "node", "id": 12068855283, "lat": 42.556487, "lon": -78.1528598, "tags": {"bus": "yes", "highway": "bus_stop", "name": "Main & Water", "network": "RTS Wyoming", "network:wikidata": "Q128019475", "operator": "Rochester-Genesee Regional Transportation Authority", "operator:short": "RGRTA", "operator:wikidata": "Q7353936", "public_transport": "platform"}}, {"type": "node", "id": 12068855286, "lat": 42.6833254, "lon": -78.1184555, "tags": {"bus": "yes", "highway": "bus_stop", "name": "Route 19 & Dutton Road", "network": "RTS Wyoming", "network:wikidata": "Q128019475", "operator": "Rochester-Genesee Regional Transportation Authority", "operator:short": "RGRTA", "operator:wikidata": "Q7353936", "public_transport": "platform"}}]}