{"version": 0.6, "generator": "Overpass API 0.7.62.5 1bd436f1", "osm3s": {"timestamp_osm_base": "2025-04-07T03:25:50Z", "copyright": "The data included in this document is from www.openstreetmap.org. The data is made available under ODbL."}, "elements": [{"type": "node", "id": 213297710, "lat": 42.436053, "lon": -75.110385, "tags": {"bus": "yes", "highway": "bus_stop", "name": "The Industrial Park stop", "operator": "oneonta public transit", "public_transport": "platform"}}, {"type": "node", "id": 12377495155, "lat": 42.3973749, "lon": -75.173554, "tags": {"bus": "yes", "departures_board": "no", "highway": "bus_stop", "name": "The otego stop", "network": "Otsego Express Route 6", "operator": "oneonta public transit", "public_transport": "platform", "ref": "Otego stop", "shelter": "no"}}, {"type": "node", "id": 12377532227, "lat": 42.3678912, "lon": -75.2463224, "tags": {"bus": "yes", "highway": "bus_stop", "name": "The Wells Bridge stop", "network": "Otsego Express Route 6", "operator": "oneonta public transit", "public_transport": "platform", "ref": "Stop - Wells Bridge", "source": "https://oneonta.alpinesystemsinc.com/"}}, {"type": "node", "id": 12377532228, "lat": 42.3257998, "lon": -75.3106302, "tags": {"bus": "yes", "departures_board": "no", "highway": "bus_stop", "name": "The Unadila stop", "network": "Otsego Express Route 6", "operator": "oneonta public transit", "public_transport": "platform", "ref": "Stop - Red Apple", "shelter": "no"}}, {"type": "node", "id": 12377532229, "lat": 42.313331, "lon": -75.390949, "tags": {"bus": "yes", "departures_board": "no", "highway": "bus_stop", "name": "Sidney stop", "network": "Otsego Express Route 6", "operator": "oneonta public transit", "public_transport": "platform", "ref": "Stop - Great American", "shelter": "no"}}, {"type": "node", "id": 12377532230, "lat": 42.296225, "lon": -75.414233, "tags": {"bus": "yes", "highway": "bus_stop", "name": "The Amphenol stop", "network": "Otsego Express Route 6", "operator": "oneonta public transit", "public_transport": "platform", "ref": "Stop - Amphenol"}}, {"type": "node", "id": 12377532231, "lat": 42.4398536, "lon": -75.1119301, "tags": {"bus": "yes", "departures_board": "no", "highway": "bus_stop", "network": "Otsego Express Route 6", "operator": "oneonta public transit", "public_transport": "platform", "ref": "ONEONTA/ DOT Route 7", "shelter": "yes"}}, {"type": "node", "id": 12377532232, "lat": 42.4530181, "lon": -75.108474, "tags": {"bus": "yes", "departures_board": "no", "highway": "bus_stop", "name": "Browne St Stop", "network": "Otsego Express Route 6", "operator": "oneonta public transit", "public_transport": "platform", "ref": "ONEONTA/ Browne St", "shelter": "no"}}, {"type": "node", "id": 12377604680, "lat": 42.4484698, "lon": -75.1042872, "tags": {"bus": "yes", "departures_board": "no", "highway": "bus_stop", "operator": "oneonta public transit", "public_transport": "platform", "shelter": "yes"}}, {"type": "node", "id": 12378181886, "lat": 42.4470197, "lon": -75.0399227, "tags": {"bus": "yes", "highway": "bus_stop", "operator": "oneonta public transit", "public_transport": "platform"}}, {"type": "node", "id": 12378181887, "lat": 42.4464361, "lon": -75.0567241, "tags": {"bus": "yes", "departures_board": "no", "highway": "bus_stop", "operator": "oneonta public transit", "public_transport": "platform", "shelter": "yes"}}, {"type": "node", "id": 12378181888, "lat": 42.4474817, "lon": -75.0540543, "tags": {"bus": "yes", "departures_board": "no", "highway": "bus_stop", "operator": "oneonta public transit", "public_transport": "platform", "shelter": "yes"}}, {"type": "node", "id": 12378226601, "lat": 42.4540862, "lon": -75.0658774, "tags": {"bus": "yes", "departures_board": "no", "highway": "bus_stop", "operator": "oneonta public transit", "public_transport": "platform", "shelter": "no"}}, {"type": "node", "id": 12378226614, "lat": 42.4476279, "lon": -75.0446526, "tags": {"bus": "yes", "highway": "bus_stop", "operator": "oneonta public transit", "public_transport": "platform"}}, {"type": "node", "id": 12378226615, "lat": 42.4523043, "lon": -75.0636627, "tags": {"bus": "yes", "highway": "bus_stop", "operator": "oneonta public transit", "public_transport": "platform"}}, {"type": "node", "id": 12378230097, "lat": 42.4537961, "lon": -75.0897155, "tags": {"bus": "yes", "departures_board": "no", "highway": "bus_stop", "operator": "oneonta public transit", "public_transport": "platform", "shelter": "yes"}}, {"type": "node", "id": 12378230098, "lat": 42.4595418, "lon": -75.0589963, "tags": {"bus": "yes", "highway": "bus_stop", "name": "Maple St", "operator": "oneonta public transit", "public_transport": "platform"}}, {"type": "node", "id": 12472905337, "lat": 42.45572, "lon": -75.0682861, "tags": {"bus": "yes", "highway": "bus_stop", "name": "West St(Daily Star)", "network": "SUNY", "operator": "oneonta public transit", "public_transport": "platform"}}, {"type": "node", "id": 12473082510, "lat": 42.4590397, "lon": -75.0655676, "tags": {"bus": "yes", "highway": "bus_stop", "name": "Church St Stop", "public_transport": "platform"}}, {"type": "node", "id": 12473082511, "lat": 42.4592769, "lon": -75.0622515, "tags": {"bus": "yes", "highway": "bus_stop", "name": "Ford Ave Stop", "public_transport": "platform"}}, {"type": "node", "id": 12473082512, "lat": 42.4612505, "lon": -75.0589968, "tags": {"bus": "yes", "highway": "bus_stop", "name": "Spruce St/Maple St", "public_transport": "platform", "shelter": "yes"}}, {"type": "node", "id": 12473082513, "lat": 42.4610444, "lon": -75.0573126, "tags": {"bus": "yes", "highway": "bus_stop", "name": "Spruce St/East St", "public_transport": "platform"}}, {"type": "node", "id": 12473082514, "lat": 42.4643375, "lon": -75.0593599, "tags": {"bus": "yes", "highway": "bus_stop", "name": "State St", "public_transport": "platform"}}, {"type": "node", "id": 12473082515, "lat": 42.4658631, "lon": -75.0640361, "tags": {"bus": "yes", "highway": "bus_stop", "name": "Bacon Hall", "public_transport": "platform"}}, {"type": "node", "id": 12473082516, "lat": 42.4697057, "lon": -75.0644075, "tags": {"bus": "yes", "highway": "bus_stop", "name": "Fine Arts", "public_transport": "platform"}}, {"type": "node", "id": 12491705750, "lat": 42.4608684, "lon": -75.0141324, "tags": {"bus": "yes", "departures_board": "no", "highway": "bus_stop", "name": "Price Chopper Stop", "operator": "oneonta public transit", "public_transport": "platform", "shelter": "no", "website": "http://www.optrides.com/"}}]}