{"version": 0.6, "generator": "Overpass API 0.7.62.5 1bd436f1", "osm3s": {"timestamp_osm_base": "2025-04-07T04:08:44Z", "copyright": "The data included in this document is from www.openstreetmap.org. The data is made available under ODbL."}, "elements": [{"type": "node", "id": 961003558, "lat": 43.0481147, "lon": -74.2167737, "tags": {"bus": "yes", "highway": "bus_stop", "public_transport": "platform"}}, {"type": "node", "id": 3019721793, "lat": 43.031765, "lon": -74.3420108}, {"type": "node", "id": 3264397485, "lat": 43.0789086, "lon": -73.7861633, "tags": {"bus": "yes", "highway": "bus_stop", "operator": "Capital District Transportation Authority", "public_transport": "platform"}}, {"type": "node", "id": 3264397486, "lat": 43.0785892, "lon": -73.7858559, "tags": {"bus": "yes", "highway": "bus_stop", "operator": "Capital District Transportation Authority", "public_transport": "platform"}}, {"type": "node", "id": 3264397502, "lat": 43.077548, "lon": -73.7828664, "tags": {"bus": "yes", "direction": "north", "highway": "bus_stop", "name": "Circular St & Union Ave", "operator": "Capital District Transportation Authority", "public_transport": "platform", "shelter": "no"}}, {"type": "node", "id": 3264397503, "lat": 43.0781527, "lon": -73.7825238, "tags": {"bus": "yes", "direction": "south", "highway": "bus_stop", "name": "Circular St & Union Ave", "operator": "Capital District Transportation Authority", "public_transport": "platform", "shelter": "no"}}, {"type": "node", "id": 3264578797, "lat": 43.0825412, "lon": -73.8100389, "tags": {"bench": "yes", "bin": "yes", "bus": "yes", "highway": "bus_stop", "lit": "yes", "name": "Saratoga Rail Station", "operator": "Capital District Transportation Authority", "public_transport": "platform", "shelter": "yes", "tactile_paving": "no"}}, {"type": "node", "id": 6789181413, "lat": 43.0796372, "lon": -73.8232919, "tags": {"bus": "yes", "highway": "bus_stop", "public_transport": "platform"}}, {"type": "node", "id": 6789181414, "lat": 43.0808303, "lon": -73.8235869, "tags": {"bus": "yes", "highway": "bus_stop", "public_transport": "platform"}}, {"type": "node", "id": 7468783685, "lat": 43.0711907, "lon": -74.3324654, "tags": {"bus": "yes", "highway": "bus_stop", "network": "Gloversville Transit System", "network:short": "GTS", "network:wikidata": "Q130312364", "operator": "City of Gloversville", "operator:wikidata": "Q1380511", "public_transport": "platform"}}, {"type": "node", "id": 7468783691, "lat": 43.0317859, "lon": -74.341991}, {"type": "node", "id": 7473634287, "lat": 43.0625516, "lon": -74.3384308, "tags": {"bus": "yes", "highway": "bus_stop", "name": "Price Chopper Bus Stop", "network": "Gloversville Transit System", "network:short": "GTS", "network:wikidata": "Q130312364", "operator": "City of Gloversville", "operator:wikidata": "Q1380511", "public_transport": "platform"}}, {"type": "node", "id": 8294559580, "lat": 42.9861458, "lon": -74.2925352, "tags": {"bus": "yes", "highway": "bus_stop", "name": "GTS FMCC Dorms", "network": "Gloversville Transit System", "network:short": "GTS", "network:wikidata": "Q130312364", "operator": "City of Gloversville", "operator:wikidata": "Q1380511", "public_transport": "platform"}}, {"type": "node", "id": 9124563789, "lat": 42.9838839, "lon": -74.2940955, "tags": {"bus": "yes", "highway": "bus_stop", "name": "FMCC", "network": "Gloversville Transit System", "network:short": "GTS", "network:wikidata": "Q130312364", "operator": "City of Gloversville", "operator:wikidata": "Q1380511", "public_transport": "platform", "shelter": "yes"}}, {"type": "node", "id": 9239050722, "lat": 43.0317668, "lon": -74.341988}, {"type": "node", "id": 9239050723, "lat": 43.0317715, "lon": -74.3421636}, {"type": "node", "id": 9239050724, "lat": 43.0317528, "lon": -74.3421607}, {"type": "node", "id": 9461615672, "lat": 43.0481367, "lon": -74.3453292, "tags": {"bus": "yes", "highway": "bus_stop", "name": "GTS Forest Hill Towers", "network": "Gloversville Transit System", "network:short": "GTS", "network:wikidata": "Q130312364", "operator": "City of Gloversville", "operator:wikidata": "Q1380511", "public_transport": "platform"}}, {"type": "node", "id": 9461615673, "lat": 43.0451774, "lon": -74.3390444, "tags": {"bus": "yes", "highway": "bus_stop", "name": "GTS Judson & Steele Avenue", "network": "Gloversville Transit System", "network:short": "GTS", "network:wikidata": "Q130312364", "operator": "City of Gloversville", "operator:wikidata": "Q1380511", "public_transport": "platform"}}, {"type": "node", "id": 9461615674, "lat": 43.0484891, "lon": -74.3271131, "tags": {"bus": "yes", "highway": "bus_stop", "name": "GTS Saratoga & Woodward", "network": "Gloversville Transit System", "network:short": "GTS", "network:wikidata": "Q130312364", "operator": "City of Gloversville", "operator:wikidata": "Q1380511", "public_transport": "platform"}}, {"type": "node", "id": 9461615675, "lat": 43.0577112, "lon": -74.3249822, "tags": {"bus": "yes", "highway": "bus_stop", "name": "GTS Arterial Plaza", "network": "Gloversville Transit System", "network:short": "GTS", "network:wikidata": "Q130312364", "operator": "City of Gloversville", "operator:wikidata": "Q1380511", "public_transport": "platform"}}, {"type": "node", "id": 9461615676, "lat": 43.0603879, "lon": -74.3220661, "tags": {"bus": "yes", "highway": "bus_stop", "name": "GTS Hannaford", "network": "Gloversville Transit System", "network:short": "GTS", "network:wikidata": "Q130312364", "operator": "City of Gloversville", "operator:wikidata": "Q1380511", "public_transport": "platform"}}, {"type": "node", "id": 9461615677, "lat": 43.0568141, "lon": -74.3344091, "tags": {"bus": "yes", "highway": "bus_stop", "name": "GTS Melchoir Park", "network": "Gloversville Transit System", "network:short": "GTS", "network:wikidata": "Q130312364", "operator": "City of Gloversville", "operator:wikidata": "Q1380511", "public_transport": "platform"}}, {"type": "node", "id": 9461615681, "lat": 43.0547921, "lon": -74.3428698, "tags": {"bus": "yes", "highway": "bus_stop", "name": "GTS Second & Main", "network": "Gloversville Transit System", "network:short": "GTS", "network:wikidata": "Q130312364", "operator": "City of Gloversville", "operator:wikidata": "Q1380511", "public_transport": "platform"}}, {"type": "node", "id": 9461615684, "lat": 43.0209288, "lon": -74.3430237, "tags": {"bus": "yes", "highway": "bus_stop", "name": "GTS Crossroads Industrial Park", "network": "Gloversville Transit System", "network:short": "GTS", "network:wikidata": "Q130312364", "operator": "City of Gloversville", "operator:wikidata": "Q1380511", "public_transport": "platform"}}, {"type": "node", "id": 9461615690, "lat": 43.0231809, "lon": -74.197813, "tags": {"bus": "yes", "highway": "bus_stop", "name": "GTS Perth Primary Care", "network": "Gloversville Transit System", "network:short": "GTS", "network:wikidata": "Q130312364", "operator": "City of Gloversville", "operator:wikidata": "Q1380511", "public_transport": "platform"}}, {"type": "node", "id": 9461615691, "lat": 43.0169119, "lon": -74.1935667, "tags": {"bus": "yes", "highway": "bus_stop", "name": "GTS Perth Four Corners", "network": "Gloversville Transit System", "network:short": "GTS", "network:wikidata": "Q130312364", "operator": "City of Gloversville", "operator:wikidata": "Q1380511", "public_transport": "platform"}}, {"type": "node", "id": 9461615692, "lat": 42.9649391, "lon": -74.1902108, "tags": {"bus": "yes", "highway": "bus_stop", "name": "GTS Target", "network": "Gloversville Transit System", "network:short": "GTS", "network:wikidata": "Q130312364", "operator": "City of Gloversville", "operator:wikidata": "Q1380511", "public_transport": "platform"}}, {"type": "node", "id": 9461615693, "lat": 42.9590791, "lon": -74.1868038, "tags": {"bus": "yes", "highway": "bus_stop", "name": "GTS Amsterdam Memorial", "network": "Gloversville Transit System", "network:short": "GTS", "network:wikidata": "Q130312364", "operator": "City of Gloversville", "operator:wikidata": "Q1380511", "public_transport": "platform"}}, {"type": "node", "id": 9461615694, "lat": 42.9405749, "lon": -74.1954101, "tags": {"bus": "yes", "highway": "bus_stop", "name": "GTS 40 Wall", "network": "Gloversville Transit System", "network:short": "GTS", "network:wikidata": "Q130312364", "operator": "City of Gloversville", "operator:wikidata": "Q1380511", "public_transport": "platform"}}, {"type": "node", "id": 9461615696, "lat": 42.9540913, "lon": -74.2161186, "tags": {"bus": "yes", "highway": "bus_stop", "name": "GTS Saint Mary's", "network": "Gloversville Transit System", "network:short": "GTS", "network:wikidata": "Q130312364", "operator": "City of Gloversville", "operator:wikidata": "Q1380511", "public_transport": "platform"}}, {"type": "node", "id": 9461615697, "lat": 42.9537933, "lon": -74.2196356, "tags": {"bus": "yes", "highway": "bus_stop", "name": "GTS Amtrak", "network": "Gloversville Transit System", "network:short": "GTS", "network:wikidata": "Q130312364", "operator": "City of Gloversville", "operator:wikidata": "Q1380511", "public_transport": "platform"}}, {"type": "node", "id": 9461615698, "lat": 42.9366489, "lon": -74.1897261, "tags": {"bus": "yes", "highway": "bus_stop", "name": "GTS Riverfront Center", "network": "Gloversville Transit System", "network:short": "GTS", "network:wikidata": "Q130312364", "operator": "City of Gloversville", "operator:wikidata": "Q1380511", "public_transport": "platform"}}, {"type": "node", "id": 9461615700, "lat": 42.9643816, "lon": -74.1843538, "tags": {"bus": "yes", "highway": "bus_stop", "name": "GTS Amsterdam Walmart", "network": "Gloversville Transit System", "network:short": "GTS", "network:wikidata": "Q130312364", "operator": "City of Gloversville", "operator:wikidata": "Q1380511", "public_transport": "platform"}}, {"type": "node", "id": 9516715800, "lat": 43.0478191, "lon": -74.3395576, "tags": {"bus": "yes", "highway": "bus_stop", "name": "Forest & Judson St", "network": "Gloversville Transit System", "network:short": "GTS", "network:wikidata": "Q130312364", "operator": "City of Gloversville", "operator:wikidata": "Q1380511", "public_transport": "platform"}}, {"type": "node", "id": 9516715801, "lat": 43.0447343, "lon": -74.3351872, "tags": {"bus": "yes", "highway": "bus_stop", "name": "Steele & Kingsboro Ave", "network": "Gloversville Transit System", "network:short": "GTS", "network:wikidata": "Q130312364", "operator": "City of Gloversville", "operator:wikidata": "Q1380511", "public_transport": "platform"}}, {"type": "node", "id": 9516715802, "lat": 43.0604206, "lon": -74.3347659, "tags": {"bus": "yes", "highway": "bus_stop", "name": "North Blvd & Kingsboro Ave", "network": "Gloversville Transit System", "network:short": "GTS", "network:wikidata": "Q130312364", "operator": "City of Gloversville", "operator:wikidata": "Q1380511", "public_transport": "platform"}}, {"type": "node", "id": 9516715803, "lat": 43.0508228, "lon": -74.3333806, "tags": {"bus": "yes", "highway": "bus_stop", "name": "Fulton St & Kingsboro Ave", "network": "Gloversville Transit System", "network:short": "GTS", "network:wikidata": "Q130312364", "operator": "City of Gloversville", "operator:wikidata": "Q1380511", "public_transport": "platform"}}, {"type": "node", "id": 9516715804, "lat": 43.0599062, "lon": -74.339864, "tags": {"bus": "yes", "highway": "bus_stop", "name": "Seventh & Main", "network": "Gloversville Transit System", "network:short": "GTS", "network:wikidata": "Q130312364", "operator": "City of Gloversville", "operator:wikidata": "Q1380511", "public_transport": "platform"}}, {"type": "node", "id": 9516715806, "lat": 43.0674752, "lon": -74.3364971, "tags": {"bus": "yes", "highway": "bus_stop", "name": "Kingsboro & State", "network": "Gloversville Transit System", "network:short": "GTS", "network:wikidata": "Q130312364", "operator": "City of Gloversville", "operator:wikidata": "Q1380511", "public_transport": "platform"}}, {"type": "node", "id": 10023157223, "lat": 43.0801509, "lon": -73.782932, "tags": {"bus": "yes", "departures_board": "no", "highway": "bus_stop", "name": "Henry St & Phila St", "network": "CDTA", "network:wikidata": "Q5035551", "operator": "Capital District Transportation Authority", "public_transport": "platform", "route_ref": "452", "shelter": "no"}}, {"type": "node", "id": 10034851846, "lat": 43.0815783, "lon": -73.7825775, "tags": {"bus": "yes", "departures_board": "no", "highway": "bus_stop", "name": "Henry St & Caroline St", "network": "CDTA", "network:wikidata": "Q5035551", "operator": "Capital District Transportation Authority", "public_transport": "platform", "ref": "5", "route_ref": "452", "shelter": "no"}}, {"type": "node", "id": 10067234009, "lat": 43.0814006, "lon": -73.7806666, "tags": {"bus": "yes", "departures_board": "no", "highway": "bus_stop", "name": "Circular St & Caroline St", "network": "CDTA", "network:wikidata": "Q5035551", "operator": "Capital District Transportation Authority", "public_transport": "platform", "route_ref": "452", "shelter": "no"}}, {"type": "node", "id": 10075260662, "lat": 43.0827605, "lon": -73.7802089, "tags": {"bus": "yes", "departures_board": "no", "highway": "bus_stop", "name": "Lake Ave & Circular St", "network": "CDTA", "network:wikidata": "Q5035551", "operator": "Capital District Transportation Authority", "public_transport": "platform", "route_ref": "451;452", "shelter": "no"}}, {"type": "node", "id": 10075260663, "lat": 43.0830027, "lon": -73.7796827, "tags": {"bus": "yes", "departures_board": "no", "highway": "bus_stop", "name": "Lake Ave & Circular St", "network": "CDTA", "network:wikidata": "Q5035551", "operator": "Capital District Transportation Authority", "public_transport": "platform", "route_ref": "451", "shelter": "no"}}, {"type": "node", "id": 10075260664, "lat": 43.0826891, "lon": -73.7823961, "tags": {"bus": "yes", "departures_board": "no", "highway": "bus_stop", "name": "Lake Ave & Henry St", "network": "CDTA", "network:wikidata": "Q5035551", "operator": "Capital District Transportation Authority", "public_transport": "platform", "route_ref": "451;452", "shelter": "no"}}, {"type": "node", "id": 10075260665, "lat": 43.0829272, "lon": -73.7828103, "tags": {"bus": "yes", "departures_board": "no", "highway": "bus_stop", "name": "Lake Ave & Henry St", "network": "CDTA", "network:wikidata": "Q5035551", "operator": "Capital District Transportation Authority", "public_transport": "platform", "route_ref": "451;452", "shelter": "no"}}, {"type": "node", "id": 10186059903, "lat": 43.058151, "lon": -73.8075684, "tags": {"bus": "yes", "departures_board": "no", "highway": "bus_stop", "network": "CDTA", "network:wikidata": "Q5035551", "operator": "CDTA", "public_transport": "platform", "ref": "450", "shelter": "yes"}}, {"type": "node", "id": 10186059904, "lat": 43.0580608, "lon": -73.8071661, "tags": {"bus": "yes", "departures_board": "no", "highway": "bus_stop", "network": "CDTA", "network:wikidata": "Q5035551", "operator": "CDTA", "public_transport": "platform", "ref": "450", "shelter": "yes"}}, {"type": "way", "id": 1000915261, "nodes": [9239050722, 7468783691, 9239050723, 9239050724, 3019721793, 9239050722], "tags": {"amenity": "shelter", "building": "yes", "bus": "yes", "highway": "bus_stop", "layer": "1", "lit": "yes", "name": "Walmart Bus Stop", "network": "Gloversville Transit System", "network:short": "GTS", "network:wikidata": "Q130312364", "operator": "City of Gloversville", "operator:wikidata": "Q1380511", "public_transport": "platform", "shelter": "yes", "shelter_type": "public_transport"}}]}