{"version": 0.6, "generator": "Overpass API 0.7.62.5 1bd436f1", "osm3s": {"timestamp_osm_base": "2025-04-07T04:08:44Z", "copyright": "The data included in this document is from www.openstreetmap.org. The data is made available under ODbL."}, "elements": [{"type": "node", "id": 1886818522, "lat": 43.0358255, "lon": -78.9763002, "tags": {"bus": "yes", "highway": "bus_stop", "operator": "NFTA-METRO", "public_transport": "platform", "shelter": "yes", "source": "Bing"}}, {"type": "node", "id": 1886818523, "lat": 43.035833, "lon": -78.9760288, "tags": {"bus": "yes", "highway": "bus_stop", "operator": "NFTA-METRO", "public_transport": "platform", "shelter": "yes", "source": "Bing"}}, {"type": "node", "id": 9898360495, "lat": 42.9020609, "lon": -78.9730575, "tags": {"bus": "yes", "highway": "bus_stop", "name": "MUNICIPAL CENTRE", "operator": "Fort Erie Transit", "public_transport": "platform", "ref": "1"}}, {"type": "node", "id": 9898360496, "lat": 42.9032221, "lon": -78.9754747, "tags": {"bus": "yes", "highway": "bus_stop", "name": "Municipal Centre / Garrison Road", "operator": "Fort Erie Transit", "public_transport": "platform", "ref": "2"}}, {"type": "node", "id": 9898360497, "lat": 42.904583, "lon": -78.9709864, "tags": {"bus": "yes", "highway": "bus_stop", "name": "Garrison Road / Buff alo Road", "operator": "Fort Erie Transit", "public_transport": "platform", "ref": "3"}}, {"type": "node", "id": 9898360498, "lat": 42.9047045, "lon": -78.9658475, "tags": {"bus": "yes", "highway": "bus_stop", "name": "Garrison Road / Daytona Drive", "operator": "Fort Erie Transit", "public_transport": "platform", "ref": "4"}}, {"type": "node", "id": 9898451455, "lat": 42.8861141, "lon": -78.9656731, "tags": {"bus": "yes", "highway": "bus_stop", "name": "Daytona Drive / Dominion Road", "operator": "Fort Erie Transit", "public_transport": "platform", "ref": "45"}}, {"type": "node", "id": 9898451456, "lat": 42.8897294, "lon": -78.9658351, "tags": {"bus": "yes", "highway": "bus_stop", "name": "Daytona Drive / Englewood Avenue", "operator": "Fort Erie Transit", "public_transport": "platform", "ref": "46"}}, {"type": "node", "id": 9898451457, "lat": 42.8952824, "lon": -78.9659081, "tags": {"bus": "yes", "highway": "bus_stop", "name": "Daytona Drive / Phillips Street", "operator": "Fort Erie Transit", "public_transport": "platform", "ref": "47"}}, {"type": "node", "id": 9898578766, "lat": 42.8952549, "lon": -78.9659072, "tags": {"bus": "yes", "highway": "bus_stop", "name": "Daytona Drive / Phillips Street", "operator": "Fort Erie Transit", "public_transport": "platform", "ref": "104"}}, {"type": "node", "id": 9898578767, "lat": 42.8898651, "lon": -78.9658364, "tags": {"bus": "yes", "highway": "bus_stop", "name": "Daytona Drive / Englewood Avenue", "operator": "Fort Erie Transit", "public_transport": "platform", "ref": "105"}}, {"type": "node", "id": 9898578768, "lat": 42.8861923, "lon": -78.9658104, "tags": {"bus": "yes", "highway": "bus_stop", "name": "Daytona Drive / Dominion Road", "operator": "Fort Erie Transit", "public_transport": "platform", "ref": "106"}}, {"type": "node", "id": 9898578769, "lat": 42.8861327, "lon": -78.9646939, "tags": {"bus": "yes", "highway": "bus_stop", "name": "Dominion Road / Lakeside Road", "operator": "Fort Erie Transit", "public_transport": "platform", "ref": "107"}}, {"type": "node", "id": 9898641248, "lat": 42.89469, "lon": -79.029915, "tags": {"bus": "yes", "highway": "bus_stop", "name": "Bernard Avenue / Nigh Road", "operator": "Fort Erie Transit", "public_transport": "platform", "ref": "500"}}, {"type": "node", "id": 9898641249, "lat": 42.8944525, "lon": -79.0394471, "tags": {"bus": "yes", "highway": "bus_stop", "name": "Nigh Road / Burleigh Road", "operator": "Fort Erie Transit", "public_transport": "platform", "ref": "501"}}, {"type": "node", "id": 9898641250, "lat": 42.8942916, "lon": -79.050582, "tags": {"bus": "yes", "highway": "bus_stop", "name": "Nigh Road / Ridge Road", "operator": "Fort Erie Transit", "public_transport": "platform", "ref": "502"}}, {"type": "node", "id": 9898641251, "lat": 42.8891145, "lon": -79.0522866, "tags": {"bus": "yes", "highway": "bus_stop", "name": "Ridge Road / Hazel Street", "operator": "Fort Erie Transit", "public_transport": "platform", "ref": "503"}}, {"type": "node", "id": 9898673381, "lat": 42.8963025, "lon": -78.9703789, "tags": {"bus": "yes", "highway": "bus_stop", "name": "Buff alo Road / Nigh Road", "operator": "Fort Erie Transit", "public_transport": "platform", "ref": "200"}}, {"type": "node", "id": 9898673382, "lat": 42.8861187, "lon": -78.9701503, "tags": {"bus": "yes", "highway": "bus_stop", "name": "Dominion Road / Buff alo Road", "operator": "Fort Erie Transit", "public_transport": "platform", "ref": "201"}}, {"type": "node", "id": 9898673383, "lat": 42.8851224, "lon": -79.0296878, "tags": {"bus": "yes", "highway": "bus_stop", "name": "Bernard Avenue / Dominion Road", "operator": "Fort Erie Transit", "public_transport": "platform", "ref": "300"}}, {"type": "node", "id": 9898673384, "lat": 42.8797986, "lon": -79.0294353, "tags": {"bus": "yes", "highway": "bus_stop", "name": "Bernard Avenue / Bethune Avenue", "operator": "Fort Erie Transit", "public_transport": "platform", "ref": "301"}}, {"type": "node", "id": 9898673385, "lat": 42.8761959, "lon": -79.0292448, "tags": {"bus": "yes", "highway": "bus_stop", "name": "Thunderbay Road / Bernard Avenue", "operator": "Fort Erie Transit", "public_transport": "platform", "ref": "302"}}, {"type": "node", "id": 9898673386, "lat": 42.8758671, "lon": -79.0390259, "tags": {"bus": "yes", "highway": "bus_stop", "name": "Thunderbay Road / Burleigh Road", "operator": "Fort Erie Transit", "public_transport": "platform", "ref": "303"}}, {"type": "node", "id": 9898673387, "lat": 42.8758046, "lon": -79.0517371, "tags": {"bus": "yes", "highway": "bus_stop", "name": "Thunderbay Road / Ridge Road", "operator": "Fort Erie Transit", "public_transport": "platform", "ref": "304"}}, {"type": "node", "id": 9898673388, "lat": 42.8738962, "lon": -79.0520045, "tags": {"bus": "yes", "highway": "bus_stop", "name": "Ridge Road / Crystal Ridge Arena/ Library", "operator": "Fort Erie Transit", "public_transport": "platform", "ref": "220"}}, {"type": "node", "id": 9898673389, "lat": 42.870312, "lon": -79.052196, "tags": {"bus": "yes", "highway": "bus_stop", "name": "Ridge Road S / Rebstock Road", "operator": "Fort Erie Transit", "public_transport": "platform", "ref": "305"}}, {"type": "node", "id": 9898673390, "lat": 42.8704987, "lon": -79.0587938, "tags": {"bus": "yes", "highway": "bus_stop", "name": "Rebstock Road / Ridgeway Road", "operator": "Fort Erie Transit", "public_transport": "platform", "ref": "312"}}, {"type": "node", "id": 9898673391, "lat": 42.8722248, "lon": -79.0686814, "tags": {"bus": "yes", "highway": "bus_stop", "name": "Rebstock Road / Schooley Road", "operator": "Fort Erie Transit", "public_transport": "platform", "ref": "211"}}, {"type": "node", "id": 9898673392, "lat": 42.869488, "lon": -79.0723186, "tags": {"bus": "yes", "highway": "bus_stop", "name": "Lakewood Avenue / Smalls Road", "operator": "Fort Erie Transit", "public_transport": "platform", "ref": "212"}}, {"type": "node", "id": 9898673394, "lat": 42.8637506, "lon": -79.068805, "tags": {"bus": "yes", "highway": "bus_stop", "name": "Erie Road / Schooley Road - Bay Beach", "operator": "Fort Erie Transit", "public_transport": "platform", "ref": "214"}}, {"type": "node", "id": 9898673395, "lat": 42.8637883, "lon": -79.0656308, "tags": {"bus": "yes", "highway": "bus_stop", "name": "Erie Road / Elmwood Avenue", "operator": "Fort Erie Transit", "public_transport": "platform", "ref": "215"}}, {"type": "node", "id": 9898673396, "lat": 42.8638046, "lon": -79.0614354, "tags": {"bus": "yes", "highway": "bus_stop", "name": "Erie Road / Derby Road", "operator": "Fort Erie Transit", "public_transport": "platform", "ref": "216"}}, {"type": "node", "id": 9898673397, "lat": 42.8638433, "lon": -79.0588275, "tags": {"bus": "yes", "highway": "bus_stop", "name": "Ridgeway Road / Erie Road", "operator": "Fort Erie Transit", "public_transport": "platform", "ref": "217"}}, {"type": "node", "id": 9898673398, "lat": 42.8680964, "lon": -79.0588489, "tags": {"bus": "yes", "highway": "bus_stop", "name": "Ridgeway Road / Roxborough Avenue", "operator": "Fort Erie Transit", "public_transport": "platform", "ref": "218"}}, {"type": "node", "id": 9898673399, "lat": 42.8703864, "lon": -79.0589206, "tags": {"bus": "yes", "highway": "bus_stop", "name": "Rebstock Road / Ridgeway Road", "operator": "Fort Erie Transit", "public_transport": "platform", "ref": "313"}}, {"type": "node", "id": 9898673400, "lat": 42.8734291, "lon": -79.0590574, "tags": {"bus": "yes", "highway": "bus_stop", "name": "Ridgeway Road / Wellington Road", "operator": "Fort Erie Transit", "public_transport": "platform", "ref": "314"}}, {"type": "node", "id": 9898673401, "lat": 42.8767934, "lon": -79.0565318, "tags": {"bus": "yes", "highway": "bus_stop", "name": "Farr Avenue / Park Street", "operator": "Fort Erie Transit", "public_transport": "platform", "ref": "315"}}, {"type": "node", "id": 9898673402, "lat": 42.878506, "lon": -79.0518337, "tags": {"bus": "yes", "highway": "bus_stop", "name": "Ridge Road / Connection Drive", "operator": "Fort Erie Transit", "public_transport": "platform", "ref": "316"}}, {"type": "node", "id": 9898673403, "lat": 42.8815402, "lon": -79.0519343, "tags": {"bus": "yes", "highway": "bus_stop", "name": "Ridge Road / Disher Street", "operator": "Fort Erie Transit", "public_transport": "platform", "ref": "317"}}, {"type": "node", "id": 9898673404, "lat": 42.8829639, "lon": -79.059287, "tags": {"bus": "yes", "highway": "bus_stop", "name": "Gorham Road / Hibbard Street", "operator": "Fort Erie Transit", "public_transport": "platform", "ref": "318"}}, {"type": "node", "id": 9898673405, "lat": 42.8846811, "lon": -79.0592822, "tags": {"bus": "yes", "highway": "bus_stop", "name": "Dominion Road / Gorham Road", "operator": "Fort Erie Transit", "public_transport": "platform", "ref": "319"}}, {"type": "node", "id": 9898673406, "lat": 42.8849959, "lon": -79.0522434, "tags": {"bus": "yes", "highway": "bus_stop", "name": "Dominion Road / Ridge Road EB", "operator": "Fort Erie Transit", "public_transport": "platform", "ref": "320"}}, {"type": "node", "id": 9898673407, "lat": 42.8860131, "lon": -78.9703725, "tags": {"bus": "yes", "highway": "bus_stop", "name": "Dominion Road / Buffalo Road", "operator": "Fort Erie Transit", "public_transport": "platform", "ref": "226"}}, {"type": "node", "id": 9898673408, "lat": 42.8861085, "lon": -78.9659386, "tags": {"bus": "yes", "highway": "bus_stop", "name": "Dominion Road / Daytona Drive", "operator": "Fort Erie Transit", "public_transport": "platform", "ref": "227"}}, {"type": "node", "id": 9898673409, "lat": 42.8960849, "lon": -78.9703723, "tags": {"bus": "yes", "highway": "bus_stop", "name": "Buffalo Road / Friendship Centre", "operator": "Fort Erie Transit", "public_transport": "platform", "ref": "228"}}, {"type": "node", "id": 9918072919, "lat": 42.8638298, "lon": -79.072242, "tags": {"bus": "yes", "highway": "bus_stop", "name": "Lakewood Avenue / Erie Road", "operator": "Fort Erie Transit", "public_transport": "platform", "ref": "213"}}]}