{"version": 0.6, "generator": "Overpass API 0.7.62.5 1bd436f1", "osm3s": {"timestamp_osm_base": "2025-04-07T04:08:44Z", "copyright": "The data included in this document is from www.openstreetmap.org. The data is made available under ODbL."}, "elements": [{"type": "node", "id": 2564016353, "lat": 42.5120387, "lon": -76.3505557, "tags": {"bench": "yes", "bus": "yes", "highway": "bus_stop", "public_transport": "platform", "shelter": "yes"}}, {"type": "node", "id": 4475448696, "lat": 42.4698104, "lon": -76.4805621, "tags": {"bus": "yes", "highway": "bus_stop", "name": "Triphammer @ Hanshaw WB", "name:en": "Triphammer @ Hanshaw WB", "network": "TCAT", "network:wikidata": "Q7820360", "operator": "Tompkins Consolidated Area Transit", "public_transport": "platform", "shelter": "yes", "tactile_paving": "no"}}, {"type": "node", "id": 4475449291, "lat": 42.4790345, "lon": -76.4783887, "tags": {"bench": "no", "bin": "no", "bus": "yes", "highway": "bus_stop", "lit": "yes", "name": "Cinema @ Sheraton - SB", "name:en": "Cinema @ Sheraton - SB", "operator": "TCAT (tcatbus.com)", "public_transport": "platform", "ref": "3548", "shelter": "no", "tactile_paving": "no"}}, {"type": "node", "id": 4475449594, "lat": 42.4697143, "lon": -76.480317, "tags": {"bus": "yes", "highway": "bus_stop", "name": "Triphammer @ Hanshaw EB", "network": "TCAT", "network:wikidata": "Q7820360", "operator": "Tompkins Consolidated Area Transit", "public_transport": "platform", "shelter": "no", "tactile_paving": "no"}}, {"type": "node", "id": 4475449595, "lat": 42.4727272, "lon": -76.4813475, "tags": {"bus": "yes", "highway": "bus_stop", "name": "Triphammer @ Texas", "network": "TCAT", "operator": "TCAT (tcatbus.com)", "public_transport": "platform", "shelter": "no", "tactile_paving": "no"}}, {"type": "node", "id": 4475449596, "lat": 42.4788915, "lon": -76.4782803, "tags": {"bench": "no", "bin": "no", "bus": "yes", "highway": "bus_stop", "lit": "yes", "name": "Cinema @ Sheraton - NB", "name:en": "Cinema @ Sheraton - NB", "network": "TCAT", "operator": "TCAT (tcatbus.com)", "public_transport": "platform", "ref": "3547", "shelter": "no", "tactile_paving": "no"}}, {"type": "node", "id": 4475484189, "lat": 42.4787131, "lon": -76.4822079, "tags": {"bench": "no", "bin": "no", "bus": "yes", "check_date:shelter": "2023-12-03", "highway": "bus_stop", "lit": "yes", "name": "Triphammer @ Triphammer Marketplace", "network": "TCAT", "network:wikidata": "Q7820360", "operator": "Tompkins Consolidated Area Transit", "public_transport": "platform", "ref": "3526", "shelter": "no", "tactile_paving": "no"}}, {"type": "node", "id": 4475561500, "lat": 42.4663006, "lon": -76.4843929, "tags": {"bus": "yes", "highway": "bus_stop", "name": "Northway @ Triphammer", "network": "TCAT", "network:wikidata": "Q7820360", "operator": "Tompkins Consolidated Area Transit", "public_transport": "platform"}}, {"type": "node", "id": 4475576690, "lat": 42.4790807, "lon": -76.4826352, "tags": {"bench": "yes", "bin": "no", "bus": "yes", "check_date:shelter": "2023-12-03", "highway": "bus_stop", "name": "Lansing West Apts", "network": "TCAT", "network:wikidata": "Q7820360", "operator": "Tompkins Consolidated Area Transit", "public_transport": "platform", "shelter": "yes", "tactile_paving": "no", "website": "https://tcat.nextinsight.com/stops/9242"}}, {"type": "node", "id": 4475589793, "lat": 42.4826907, "lon": -76.4899115, "tags": {"bus": "yes", "highway": "bus_stop", "name": "The Shops at Ithaca Mall", "network": "TCAT", "network:wikidata": "Q7820360", "operator": "Tompkins Consolidated Area Transit", "public_transport": "platform", "shelter": "yes", "tactile_paving": "no"}}, {"type": "node", "id": 4477835472, "lat": 42.4766548, "lon": -76.4817585, "tags": {"bench": "no", "bin": "no", "bus": "yes", "check_date:shelter": "2023-12-17", "highway": "bus_stop", "lit": "yes", "name": "Triphammer Across From Kendal", "network": "TCAT", "network:wikidata": "Q7820360", "operator": "Tompkins Consolidated Area Transit", "public_transport": "platform", "ref": "3521", "shelter": "no", "tactile_paving": "no"}}, {"type": "node", "id": 4477931591, "lat": 42.4766931, "lon": -76.4819403, "tags": {"bench": "yes", "bin": "no", "bus": "yes", "check_date:shelter": "2023-12-06", "highway": "bus_stop", "name": "Triphammer @ Kendal", "network": "TCAT", "network:wikidata": "Q7820360", "operator": "Tompkins Consolidated Area Transit", "public_transport": "platform", "ref": "3522", "shelter": "yes", "tactile_paving": "no"}}, {"type": "node", "id": 4483333789, "lat": 42.4782382, "lon": -76.4813133, "tags": {"bench": "no", "bin": "no", "bus": "yes", "highway": "bus_stop", "lit": "no", "name": "Sheraton @ Trip Hotel - WB", "name:en": "Sheraton @ Trip Hotel - WB", "network": "TCAT", "network:wikidata": "Q7820360", "operator": "Tompkins Consolidated Area Transit", "public_transport": "platform", "ref": "3524", "shelter": "no", "tactile_paving": "no"}}, {"type": "node", "id": 4484309892, "lat": 42.4781403, "lon": -76.4818199, "tags": {"bench": "no", "bin": "no", "bus": "yes", "highway": "bus_stop", "lit": "no", "name": "Sheraton @ Triphammer - EB", "name:en": "Sheraton @ Triphammer - EB", "network": "TCAT", "network:wikidata": "Q7820360", "operator": "Tompkins Consolidated Area Transit", "public_transport": "platform", "ref": "3523", "shelter": "no", "tactile_paving": "no"}}, {"type": "node", "id": 5029440622, "lat": 42.4785238, "lon": -76.4689375, "tags": {"bus": "yes", "highway": "bus_stop", "name": "Uptown @ Warrenwood Apts - EB", "network": "TCAT", "operator": "tcatbus.com", "public_transport": "platform", "shelter": "no", "tactile_paving": "no"}}, {"type": "node", "id": 5029459822, "lat": 42.4812783, "lon": -76.4751545, "tags": {"bus": "yes", "highway": "bus_stop", "name": "Gaslight Village Apts - NB", "name:en": "Gaslight Village Apts - NB", "network": "TCAT", "operator": "tcatbus.com", "public_transport": "platform", "shelter": "yes"}}, {"type": "node", "id": 5029464321, "lat": 42.4860623, "lon": -76.4673206, "tags": {"bench": "no", "bin": "no", "bus": "yes", "highway": "bus_stop", "lit": "no", "name": "Warren @ Northwoods", "name:en": "Warren @ Northwoods", "operator": "tcatbus.com", "public_transport": "platform", "ref": "3743", "shelter": "no", "tactile_paving": "yes"}}, {"type": "node", "id": 6904037910, "lat": 42.467657, "lon": -76.4778378, "tags": {"bench": "no", "bin": "no", "bus": "yes", "check_date:shelter": "2023-12-06", "highway": "bus_stop", "name": "Pleasent Grove @ Hanshaw", "network": "TCAT", "operator": "TCAT", "public_transport": "platform", "shelter": "no", "tactile_paving": "no"}}, {"type": "node", "id": 6904037911, "lat": 42.4672691, "lon": -76.4778391, "tags": {"bench": "yes", "bin": "no", "bus": "yes", "check_date:shelter": "2023-10-27", "highway": "bus_stop", "lit": "no", "name": "Pleasent Grove @ Hanshaw", "network": "TCAT", "operator": "TCAT", "public_transport": "platform", "ref": "3712", "shelter": "yes", "tactile_paving": "no"}}, {"type": "node", "id": 6904037912, "lat": 42.4725864, "lon": -76.4814656, "tags": {"bus": "yes", "highway": "bus_stop", "name": "Triphammer @ Spruce", "network": "TCAT", "operator": "TCAT", "public_transport": "platform"}}, {"type": "node", "id": 6904037913, "lat": 42.4836894, "lon": -76.4854904, "tags": {"bench": "yes", "bin": "no", "bus": "yes", "check_date:shelter": "2023-10-24", "highway": "bus_stop", "lit": "yes", "name": "Triphammer @ Cayuga Mall", "network": "TCAT", "network:wikidata": "Q7820360", "operator": "Tompkins Consolidated Area Transit", "public_transport": "platform", "ref": "3579", "shelter": "yes", "tactile_paving": "no"}}, {"type": "node", "id": 6904037914, "lat": 42.4823588, "lon": -76.4864926, "tags": {"bench": "yes", "bin": "yes", "bus": "yes", "departures_board": "no", "highway": "bus_stop", "name": "Tops Supermarket (Lansing)", "network": "TCAT", "network:wikidata": "Q7820360", "operator": "Tompkins Consolidated Area Transit", "public_transport": "platform", "ref": "3593", "shelter": "yes", "tactile_paving": "no"}}, {"type": "node", "id": 6904063924, "lat": 42.4636181, "lon": -76.4865648, "tags": {"bus": "yes", "highway": "bus_stop", "name": "The Parkway @ Upland", "network": "TCAT", "network:wikidata": "Q7820360", "operator": "Tompkins Consolidated Area Transit", "public_transport": "platform"}}, {"type": "node", "id": 6904063925, "lat": 42.465188, "lon": -76.486736, "tags": {"bus": "yes", "highway": "bus_stop", "name": "The Parkway @ Northway", "network": "TCAT", "network:wikidata": "Q7820360", "operator": "Tompkins Consolidated Area Transit", "public_transport": "platform"}}, {"type": "node", "id": 7564130733, "lat": 42.4666237, "lon": -76.4841934, "tags": {"bus": "yes", "highway": "bus_stop", "name": "Triphammer @ Northway", "network": "TCAT", "network:wikidata": "Q7820360", "operator": "Tompkins Consolidated Area Transit", "public_transport": "platform", "ref": "1372"}}, {"type": "node", "id": 7564130734, "lat": 42.4654289, "lon": -76.486668, "tags": {"bus": "yes", "departures_board": "no", "highway": "bus_stop", "name": "Northway @ The Parkway", "network": "TCAT", "network:wikidata": "Q7820360", "operator": "Tompkins Consolidated Area Transit", "public_transport": "platform", "ref": "1378", "shelter": "no"}}, {"type": "node", "id": 7564130735, "lat": 42.4638527, "lon": -76.4867206, "tags": {"bus": "yes", "departures_board": "no", "highway": "bus_stop", "name": "The Parkway @ Upland", "network": "TCAT", "network:wikidata": "Q7820360", "operator": "Tompkins Consolidated Area Transit", "public_transport": "platform", "ref": "1376", "shelter": "no"}}, {"type": "node", "id": 7570854260, "lat": 42.4860091, "lon": -76.4890546, "tags": {"bench": "no", "bin": "no", "bus": "yes", "check_date:shelter": "2023-11-11", "highway": "bus_stop", "name": "YMCA", "network": "TCAT", "network:wikidata": "Q7820360", "operator": "Tompkins Consolidated Area Transit", "public_transport": "platform", "ref": "3584", "shelter": "no", "tactile_paving": "no"}}, {"type": "node", "id": 7968936864, "lat": 42.461669, "lon": -76.4827796, "tags": {"bench": "no", "bus": "yes", "highway": "bus_stop", "name": "Triphammer Road & Iroqouis Road", "network": "TCAT", "network:wikidata": "Q7820360", "operator": "Tompkins Consolidated Area Transit", "public_transport": "platform", "shelter": "no"}}, {"type": "node", "id": 7968936866, "lat": 42.4618686, "lon": -76.4831584, "tags": {"bench": "no", "bus": "yes", "highway": "bus_stop", "name": "Triphammer Road & Iroqouis Road", "network": "TCAT", "network:wikidata": "Q7820360", "operator": "Tompkins Consolidated Area Transit", "public_transport": "platform", "shelter": "no"}}, {"type": "node", "id": 7968936869, "lat": 42.4631076, "lon": -76.4836717, "tags": {"bench": "no", "bus": "yes", "highway": "bus_stop", "name": "Triphammer Road & Iroqouis Place", "network": "TCAT", "network:wikidata": "Q7820360", "operator": "Tompkins Consolidated Area Transit", "public_transport": "platform", "shelter": "no"}}, {"type": "node", "id": 7969537401, "lat": 42.4753359, "lon": -76.481869, "tags": {"bench": "no", "bin": "no", "bus": "yes", "check_date:shelter": "2023-12-06", "highway": "bus_stop", "lit": "no", "name": "Triphammer Road & Winthrop Drive", "network": "TCAT", "network:wikidata": "Q7820360", "operator": "Tompkins Consolidated Area Transit", "public_transport": "platform", "ref": "3520", "shelter": "no", "tactile_paving": "no"}}, {"type": "node", "id": 8426035688, "lat": 42.5978376, "lon": -76.187323, "tags": {"bus": "yes", "highway": "bus_stop", "public_transport": "platform"}}, {"type": "node", "id": 8446667664, "lat": 42.5965669, "lon": -76.1932532, "tags": {"bus": "yes", "highway": "bus_stop", "public_transport": "platform"}}, {"type": "node", "id": 10075740213, "lat": 42.4751348, "lon": -76.4816647, "tags": {"bench": "no", "bin": "no", "bus": "yes", "highway": "bus_stop", "lit": "yes", "name": "Triphammer @ Winthrop (northbound)", "network": "TCAT", "network:wikidata": "Q7820360", "operator": "Tompkins Consolidated Area Transit", "public_transport": "platform", "ref": "3519", "shelter": "no", "tactile_paving": "no"}}, {"type": "node", "id": 10080990792, "lat": 42.4863567, "lon": -76.4675716, "tags": {"bench": "no", "bin": "no", "bus": "yes", "highway": "bus_stop", "name": "Warren @ Northwoods", "name:en": "Warren @ Northwoods", "operator": "tcatbus.com", "public_transport": "platform", "ref": "3744", "shelter": "no", "tactile_paving": "yes"}}, {"type": "node", "id": 10080990797, "lat": 42.4786075, "lon": -76.4688456, "tags": {"bus": "yes", "highway": "bus_stop", "name": "Uptown @ Warrenwood Apts - WB", "operator": "tcatbus.com", "public_transport": "platform", "shelter": "no", "tactile_paving": "no"}}, {"type": "node", "id": 10080990798, "lat": 42.4784611, "lon": -76.4726919, "tags": {"bus": "yes", "highway": "bus_stop", "name": "Uptown Village Apts", "network": "TCAT", "public_transport": "platform"}}, {"type": "node", "id": 10080990799, "lat": 42.4784948, "lon": -76.4725283, "tags": {"bus": "yes", "highway": "bus_stop", "name": "Uptown Village Apts", "network": "TCAT", "public_transport": "platform"}}, {"type": "node", "id": 10080990800, "lat": 42.4805738, "lon": -76.4728944, "tags": {"bus": "yes", "highway": "bus_stop", "name": "University Park Apts", "network": "TCAT", "public_transport": "platform"}}, {"type": "node", "id": 10080990801, "lat": 42.4806312, "lon": -76.4727643, "tags": {"bus": "yes", "highway": "bus_stop", "name": "University Park Apts", "network": "TCAT", "public_transport": "platform"}}, {"type": "node", "id": 10080990802, "lat": 42.4813567, "lon": -76.4751635, "tags": {"bus": "yes", "highway": "bus_stop", "name": "Gaslight Village Apts - SB", "name:en": "Gaslight Village Apts - SB", "operator": "tcatbus.com", "public_transport": "platform", "shelter": "yes"}}, {"type": "node", "id": 10080990803, "lat": 42.4811564, "lon": -76.4783165, "tags": {"bench": "no", "bin": "no", "bus": "yes", "highway": "bus_stop", "lit": "no", "name": "Uptown @ Cinema", "network": "TCAT", "public_transport": "platform", "ref": "3550", "shelter": "no", "tactile_paving": "no"}}, {"type": "node", "id": 10080990804, "lat": 42.4809477, "lon": -76.4784231, "tags": {"bench": "no", "bin": "no", "bus": "yes", "highway": "bus_stop", "lit": "yes", "name": "Cinema @ Uptown", "network": "TCAT", "public_transport": "platform", "ref": "3549", "shelter": "no", "tactile_paving": "no"}}, {"type": "node", "id": 10176179385, "lat": 42.4771733, "lon": -76.4059612, "tags": {"bus": "yes", "highway": "bus_stop", "name": "Lower Creek @ Pinckney", "network": "TCAT", "network:wikidata": "Q7820360", "operator": "Tompkins Consolidated Area Transit", "public_transport": "platform"}}, {"type": "node", "id": 10176179386, "lat": 42.4795917, "lon": -76.3995481, "tags": {"bus": "yes", "highway": "bus_stop", "name": "Creekwood Apts", "network": "TCAT", "network:wikidata": "Q7820360", "operator": "Tompkins Consolidated Area Transit", "public_transport": "platform"}}, {"type": "node", "id": 10176179387, "lat": 42.4853133, "lon": -76.3851567, "tags": {"bus": "yes", "highway": "bus_stop", "name": "Etna Post Office", "network": "TCAT", "network:wikidata": "Q7820360", "operator": "Tompkins Consolidated Area Transit", "public_transport": "platform"}}, {"type": "node", "id": 10176179390, "lat": 42.4833679, "lon": -76.4292012, "tags": {"bus": "yes", "highway": "bus_stop", "name": "Hanshaw Village", "network": "TCAT", "network:wikidata": "Q7820360", "operator": "Tompkins Consolidated Area Transit", "public_transport": "platform"}}, {"type": "node", "id": 10176179395, "lat": 42.4675543, "lon": -76.4502713, "tags": {"bus": "yes", "highway": "bus_stop", "name": "Hanshaw @ Sapsucker (WB)", "network": "TCAT", "network:wikidata": "Q7820360", "operator": "Tompkins Consolidated Area Transit", "public_transport": "platform"}}, {"type": "node", "id": 10176179396, "lat": 42.4674534, "lon": -76.4502767, "tags": {"bus": "yes", "highway": "bus_stop", "name": "Hanshaw @ Sapsucker (EB)", "network": "TCAT", "network:wikidata": "Q7820360", "operator": "Tompkins Consolidated Area Transit", "public_transport": "platform"}}, {"type": "node", "id": 10176179407, "lat": 42.4671922, "lon": -76.4657222, "tags": {"bench": "no", "bus": "yes", "highway": "bus_stop", "name": "Hanshaw @ Warren (WB)", "network": "TCAT", "network:wikidata": "Q7820360", "operator": "Tompkins Consolidated Area Transit", "public_transport": "platform", "shelter": "no"}}, {"type": "node", "id": 10176179408, "lat": 42.4670537, "lon": -76.4663418, "tags": {"bench": "no", "bus": "yes", "highway": "bus_stop", "name": "Hanshaw @ Warren (EB)", "network": "TCAT", "network:wikidata": "Q7820360", "operator": "Tompkins Consolidated Area Transit", "public_transport": "platform", "shelter": "no"}}, {"type": "node", "id": 10624159258, "lat": 42.4774416, "lon": -76.557637, "tags": {"bus": "yes", "highway": "bus_stop", "name": "TCAT Woolf Lane", "network": "TCAT", "network:wikidata": "Q7820360", "operator": "Tompkins Consolidated Area Transit", "public_transport": "platform", "shelter": "no"}}, {"type": "node", "id": 10624159259, "lat": 42.4774447, "lon": -76.5574399, "tags": {"bus": "yes", "highway": "bus_stop", "name": "TCAT Woolf Lane", "network": "TCAT", "network:wikidata": "Q7820360", "operator": "Tompkins Consolidated Area Transit", "public_transport": "platform", "shelter": "no"}}, {"type": "node", "id": 10677537681, "lat": 42.5268621, "lon": -76.4919958, "tags": {"bus": "yes", "highway": "bus_stop", "name": "Triphammer @ Asbury (Inbound)", "network": "TCAT", "network:wikidata": "Q7820360", "operator": "Tompkins Consolidated Area Transit", "public_transport": "platform"}}, {"type": "node", "id": 10677537682, "lat": 42.5267999, "lon": -76.4917919, "tags": {"bus": "yes", "highway": "bus_stop", "name": "Triphammer @ Asbury (Outbound)", "network": "TCAT", "network:wikidata": "Q7820360", "operator": "Tompkins Consolidated Area Transit", "public_transport": "platform"}}, {"type": "node", "id": 10677537683, "lat": 42.5268404, "lon": -76.4841637, "tags": {"bus": "yes", "highway": "bus_stop", "name": "Asbury @ Armstrong (Inbound)", "network": "TCAT", "network:wikidata": "Q7820360", "operator": "Tompkins Consolidated Area Transit", "public_transport": "platform"}}, {"type": "node", "id": 10677537684, "lat": 42.5269768, "lon": -76.4837319, "tags": {"bus": "yes", "highway": "bus_stop", "name": "Asbury @ Armstrong (Outbound)", "network": "TCAT", "network:wikidata": "Q7820360", "operator": "Tompkins Consolidated Area Transit", "public_transport": "platform"}}, {"type": "node", "id": 10677537685, "lat": 42.5246808, "lon": -76.4728421, "tags": {"bus": "yes", "highway": "bus_stop", "name": "Warren @ Asbury (Inbound)", "network": "TCAT", "network:wikidata": "Q7820360", "operator": "Tompkins Consolidated Area Transit", "public_transport": "platform"}}, {"type": "node", "id": 10677537686, "lat": 42.5246116, "lon": -76.4725632, "tags": {"bus": "yes", "highway": "bus_stop", "name": "Warren @ Asbury (Outbound)", "network": "TCAT", "network:wikidata": "Q7820360", "operator": "Tompkins Consolidated Area Transit", "public_transport": "platform"}}, {"type": "node", "id": 10677537702, "lat": 42.4719663, "lon": -76.4644307, "tags": {"bus": "yes", "highway": "bus_stop", "name": "Warren @ Christopher (NB)", "network": "TCAT", "network:wikidata": "Q7820360", "operator": "Tompkins Consolidated Area Transit", "public_transport": "platform"}}, {"type": "node", "id": 10677537703, "lat": 42.4720494, "lon": -76.4646292, "tags": {"bus": "yes", "highway": "bus_stop", "name": "Warren @ Christopher (SB)", "network": "TCAT", "network:wikidata": "Q7820360", "operator": "Tompkins Consolidated Area Transit", "public_transport": "platform"}}, {"type": "node", "id": 10677537704, "lat": 42.4672377, "lon": -76.4660561, "tags": {"bench": "no", "bin": "no", "bus": "yes", "highway": "bus_stop", "name": "Warren @ Hanshaw (SB)", "network": "TCAT", "network:wikidata": "Q7820360", "operator": "Tompkins Consolidated Area Transit", "public_transport": "platform", "shelter": "no"}}, {"type": "node", "id": 10677619406, "lat": 42.4796303, "lon": -76.3997519, "tags": {"bus": "yes", "highway": "bus_stop", "name": "Creekwood Apts (WB)", "network": "TCAT", "network:wikidata": "Q7820360", "operator": "Tompkins Consolidated Area Transit", "public_transport": "platform"}}, {"type": "node", "id": 10677619407, "lat": 42.4830603, "lon": -76.3882989, "tags": {"bus": "yes", "highway": "bus_stop", "name": "Lower Creek @ Creek Rd (WB)", "network": "TCAT", "network:wikidata": "Q7820360", "operator": "Tompkins Consolidated Area Transit", "public_transport": "platform"}}, {"type": "node", "id": 10906838640, "lat": 42.4629213, "lon": -76.5006231, "tags": {"bus": "yes", "highway": "bus_stop", "name": "Stewart Park Entrance", "network": "TCAT", "public_transport": "platform"}}, {"type": "node", "id": 10906838641, "lat": 42.4608249, "lon": -76.4975077, "tags": {"bench": "no", "bus": "yes", "highway": "bus_stop", "name": "Lake St @ Boynton (Southbound)", "public_transport": "platform", "shelter": "no"}}, {"type": "node", "id": 10906838642, "lat": 42.4608743, "lon": -76.4972663, "tags": {"bench": "no", "bus": "yes", "highway": "bus_stop", "name": "Lake St @ Boynton (Northbound)", "public_transport": "platform", "shelter": "no"}}, {"type": "node", "id": 10913387205, "lat": 42.4671823, "lon": -76.536961, "tags": {"bus": "yes", "highway": "bus_stop", "name": "Museum of the Earth", "network": "TCAT", "public_transport": "platform"}}, {"type": "node", "id": 10913387206, "lat": 42.468874, "lon": -76.5380681, "tags": {"bus": "yes", "highway": "bus_stop", "name": "Cayuga Medical Center", "network": "TCAT", "public_transport": "platform"}}, {"type": "node", "id": 10913387207, "lat": 42.4679649, "lon": -76.5413618, "tags": {"bus": "yes", "highway": "bus_stop", "name": "Professional Building", "network": "TCAT", "public_transport": "platform"}}, {"type": "node", "id": 10913387208, "lat": 42.4658023, "lon": -76.5407449, "tags": {"bus": "yes", "highway": "bus_stop", "name": "Overlook Apts", "network": "TCAT", "public_transport": "platform"}}, {"type": "node", "id": 10913387209, "lat": 42.4644083, "lon": -76.5410024, "tags": {"bus": "yes", "highway": "bus_stop", "name": "Cayuga Meadows", "network": "TCAT", "public_transport": "platform"}}, {"type": "node", "id": 10913387210, "lat": 42.4623812, "lon": -76.5328297, "tags": {"bus": "yes", "highway": "bus_stop", "name": "Route 96 @ Cayuga Ridge (Eastbound)", "network": "TCAT", "public_transport": "platform"}}, {"type": "node", "id": 10913387211, "lat": 42.4625038, "lon": -76.5326956, "tags": {"bus": "yes", "highway": "bus_stop", "name": "Route 96 @ Cayuga Ridge (Westbound)", "network": "TCAT", "public_transport": "platform"}}, {"type": "node", "id": 10913387212, "lat": 42.4605904, "lon": -76.5298417, "tags": {"bus": "yes", "highway": "bus_stop", "name": "Route 96 @ Bundy Road", "network": "TCAT", "public_transport": "platform"}}, {"type": "node", "id": 10913387213, "lat": 42.4599789, "lon": -76.5285945, "tags": {"bus": "yes", "highway": "bus_stop", "name": "Route 96 @ Candlewyck", "network": "TCAT", "public_transport": "platform"}}]}